{"type":"FeatureCollection","features":[{"type":"Feature","properties":{"name":"North Atlantic Ocean","rank":0},"geometry":{"type":"Polygon","coordinates":[[[-27.0,66.23434482988914],[-23.819238,64.739356],[-23.347226,64.824545],[-22.467228,64.794934],[-22.247603,64.72667],[-22.324885,64.624531],[-22.105803,64.532986],[-21.590382,64.62665],[-21.950231,64.515003],[-22.000486,64.413381],[-21.901009,64.391677],[-22.053403,64.313904],[-21.646503,64.398059],[-21.463387,64.378991],[-21.668698,64.348837],[-22.187813,64.03927],[-22.510093,63.99165],[-22.701115,64.083195],[-22.742922,64.019168],[-22.652436,63.827603],[-21.448582,63.858299],[-21.1062,63.939793],[-21.136353,63.887935],[-20.651111,63.73766],[-20.414071,63.805382],[-20.363273,63.765152],[-20.493963,63.687379],[-20.198141,63.555604],[-18.653507,63.406931],[-17.94709,63.535502],[-17.815832,63.712778],[-16.640555,63.865714],[-15.833059,64.176858],[-14.92712,64.319744],[-14.475209,64.493816],[-14.385266,64.74517],[-14.134971,64.715017],[-13.853438,64.861597],[-7.400783,62.107811],[-7.097055,62.100396],[-7.298128,62.055954],[-6.644628,61.692927],[-1.563542,60.504963],[-1.374639,60.332984],[-1.663562,60.282729],[-1.641341,60.236685],[-1.291027,60.15359],[-1.356113,59.911253],[-1.306891,59.88265],[-1.64979,59.497428],[-2.451499,59.258244],[-3.051565,58.630659],[-4.433238,58.512656],[-4.924836,58.588336],[-6.237676,58.502605],[-6.776377,58.301506],[-6.726638,58.189317],[-7.028273,58.222131],[-7.08858,58.095136],[-6.985382,58.050695],[-7.056825,58.003075],[-6.856811,57.9237],[-7.083283,57.813629],[-7.032485,57.77606],[-7.166353,57.663354],[-7.515634,57.615708],[-7.311874,57.533698],[-7.335697,57.38288],[-7.410834,57.381304],[-7.352621,57.117754],[-7.45264,57.01776],[-7.39869,56.983344],[-7.534677,56.959004],[-8.244814,55.14927],[-8.393513,55.020156],[-8.377106,54.889441],[-8.76393,54.680952],[-8.456481,54.609535],[-8.133684,54.640748],[-8.230526,54.507397],[-8.554382,54.403656],[-8.623163,54.347045],[-8.58823,54.23116],[-9.002572,54.287798],[-9.145974,54.209482],[-9.562434,54.308417],[-10.089482,54.215812],[-10.09266,54.156023],[-9.977292,54.187235],[-9.934427,54.075046],[-9.856654,54.095174],[-9.914325,53.863922],[-9.578841,53.879812],[-9.578299,53.805192],[-9.901638,53.727393],[-9.90957,53.657552],[-9.720641,53.604635],[-10.117,53.548541],[-10.091058,53.413071],[-9.795262,53.395087],[-9.875697,53.342687],[-9.625944,53.334755],[-9.514272,53.238456],[-8.93007,53.207244],[-9.299427,53.09769],[-9.461898,52.947414],[-9.393633,52.896074],[-9.465076,52.823055],[-9.916443,52.569582],[-9.560832,52.653711],[-9.17561,52.634669],[-8.990402,52.755333],[-8.783489,52.679653],[-9.632301,52.546819],[-9.90585,52.403959],[-9.771982,52.249963],[-10.132348,52.282235],[-10.356701,52.207098],[-10.390058,52.135138],[-9.90957,52.122969],[-10.378948,51.868979],[-10.340836,51.799112],[-10.084211,51.771052],[-9.598943,51.87425],[-10.120695,51.600675],[-9.579901,51.689042],[-9.524865,51.681109],[-9.835492,51.483214],[-9.296249,51.49802],[-8.407802,51.711805],[-8.335842,51.792756],[-8.409378,51.888539],[-8.05803,51.825571],[-7.527261,52.098629],[-7.003391,52.165834],[-6.965823,52.249421],[-6.890142,52.159478],[-6.619203,52.199166],[-5.70639,50.112135],[-6.570524,49.741719],[-5.882607,48.471719],[-7.998214,43.69493],[-8.256984,43.580105],[-8.249052,43.439338],[-8.536915,43.337226],[-8.873458,43.334565],[-9.178246,43.174213],[-9.235426,43.035591],[-9.126931,42.865187],[-8.927434,42.798525],[-9.033267,42.593731],[-8.81155,42.640292],[-8.812092,42.469914],[-8.730056,42.411701],[-8.815787,42.285223],[-8.690885,42.274112],[-8.887204,42.105311],[-8.878238,41.947104],[-8.777159,41.941265],[-8.887747,41.764531],[-8.755455,41.698385],[-8.805736,41.559737],[-8.655461,41.029511],[-8.872399,40.259042],[-8.838008,40.11564],[-9.148092,39.542548],[-9.37459,39.338297],[-9.479881,38.798562],[-9.356607,38.698],[-9.135923,38.742984],[-8.954409,39.016043],[-8.791448,39.077951],[-8.938028,38.998059],[-9.021614,38.746705],[-9.250231,38.656736],[-9.213179,38.448248],[-8.798863,38.518088],[-8.668148,38.424425],[-8.880874,38.446646],[-8.802015,38.183664],[-8.878755,37.958769],[-8.791964,37.732813],[-8.814211,37.430661],[-8.997817,37.032184],[-8.597764,37.121094],[-7.834167,37.005726],[-7.493387,37.168171],[-6.974814,37.19835],[-6.863684,37.278784],[-6.884846,37.194112],[-6.396426,36.831628],[-6.320746,36.908368],[-6.216514,36.913664],[-6.41229,36.728973],[-6.384256,36.636911],[-6.268888,36.596681],[-6.04084,36.188696],[-5.617507,36.02731],[-5.584176,35.841559],[-5.92493,35.786007],[-6.353043,34.776353],[-6.900736,33.968857],[-8.513092,33.252338],[-9.245993,32.572379],[-9.347589,32.086595],[-9.67514,31.710881],[-9.808491,31.42462],[-9.833042298119318,31.0],[-27.0,31.0],[-27.0,66.23434482988914]],[[-3.304496,58.967202],[-2.863721,58.890463],[-2.762642,58.955575],[-3.070634,59.004771],[-3.019293,59.076213],[-3.248427,59.143961],[-3.346844,59.065103],[-3.304496,58.967202]],[[-16.837416,32.648059],[-16.693472,32.758104],[-17.190909,32.868692],[-17.24119,32.807326],[-17.171324,32.722137],[-16.837416,32.648059]],[[-25.833766,37.825934],[-25.43901,37.715347],[-25.251166,37.734932],[-25.181842,37.838104],[-25.649101,37.840765],[-25.783511,37.911149],[-25.833766,37.825934]]]}},{"type":"Feature","properties":{"name":"Black Sea","rank":1},"geometry":{"type":"Polygon","coordinates":[[[36.617435,45.391958],[36.941239,45.289846],[36.618985,45.185588],[36.650766,45.126316],[37.204789,44.971803],[37.495314,44.69505],[37.851416,44.698771],[38.181112,44.419899],[38.717151,44.288124],[39.873928,43.47267],[41.419622,42.73765],[41.763012,41.969842],[41.701672,41.705258],[41.414299,41.423751],[40.265481,40.961247],[39.807782,40.982434],[39.426255,41.106251],[38.381151,40.924737],[37.066141,41.184567],[36.777735,41.363419],[36.405199,41.274535],[36.17927,41.426386],[36.051733,41.682521],[35.558016,41.633816],[35.29767,41.728539],[35.12197,41.890983],[35.154785,42.027538],[35.006628,42.063505],[34.75052,41.956612],[33.38156,42.017461],[32.306276,41.729598],[31.45806,41.320036],[31.254816,41.107827],[30.80983,41.085089],[30.345208,41.196736],[29.919239,41.150693],[29.053503,41.215262],[28.346518,41.466617],[28.050206,41.729081],[27.982458,42.04764],[27.708366,42.349793],[27.484504,42.467796],[27.88882,42.749846],[27.929024,43.186408],[28.133818,43.395414],[28.465581,43.389083],[28.561906,43.501247],[28.645518,44.295539],[28.888397,44.574928],[28.806904,44.564877],[28.93072,44.965989],[29.09531,44.974981],[29.048232,44.757501],[29.557297,44.843232],[29.727157,45.343279],[29.60117,45.59993],[29.628197,45.722687],[30.219272,45.866632],[30.656868,46.266685],[30.796033,46.551913],[31.403024,46.628627],[31.563324,46.777326],[31.532112,46.664594],[31.872918,46.649789],[31.912605,46.926025],[31.759126,47.212829],[31.939581,46.982094],[31.944852,46.784199],[32.04438,46.642399],[32.353922,46.5646],[32.577733,46.615398],[32.361312,46.475174],[31.554901,46.554549],[32.008362,46.43019],[31.991464,46.364586],[31.779797,46.324899],[31.831112,46.281491],[32.476705,46.083596],[33.202191,46.175657],[33.429722,46.057654],[33.59426,46.096282],[33.664643,45.947067],[32.507918,45.403611],[32.611633,45.327931],[32.918539,45.348059],[33.555141,45.097764],[33.612295,44.907776],[33.450858,44.553767],[33.655651,44.433128],[34.074231,44.423594],[34.470072,44.721508],[34.716672,44.807239],[35.087605,44.802485],[35.472802,45.098281],[35.677595,45.101976],[35.870245,45.00516],[36.393572,45.065467],[36.617435,45.391958]]]}},{"type":"Feature","properties":{"name":"Caspian Sea","rank":1},"geometry":{"type":"Polygon","coordinates":[[[52.467526,41.885712],[52.94326,41.037986],[52.733712,40.398749],[52.804612,40.054274],[53.035347,39.774317],[52.952251,39.895524],[52.987701,39.987585],[53.454443,39.941025],[53.472426,39.669026],[53.603116,39.546785],[53.235903,39.608694],[53.124747,39.43196],[53.156528,39.264735],[53.336414,39.340958],[53.704712,39.209726],[53.868785,38.949354],[53.823258,37.928073],[54.016424,36.849637],[53.679339,36.853332],[53.915345,36.930046],[53.767706,36.930046],[52.190282,36.621563],[51.762143,36.61469],[50.927672,36.80995],[50.338199,37.149128],[50.130201,37.407381],[49.37247,37.520087],[49.08086,37.667727],[48.959679,37.889961],[48.870795,38.39267],[48.850693,38.815486],[48.961797,39.07901],[49.01368,39.134046],[49.165557,39.030331],[49.36291,39.349407],[49.324307,39.608177],[49.551322,40.193955],[49.919052,40.316196],[50.365691,40.279686],[50.182601,40.504582],[49.776218,40.583957],[49.456599,40.799861],[48.823718,41.629604],[48.383951,41.953434],[47.463232,43.035048],[47.508708,43.509722],[47.646322,43.884376],[47.462664,43.555223],[47.307118,44.102916],[46.707051,44.503485],[46.755214,44.656422],[47.002847,44.876021],[47.083824,44.816774],[47.351043,45.21786],[47.529378,45.530089],[47.463232,45.679848],[47.633093,45.584065],[47.701357,45.686178],[48.159056,45.736976],[48.487149,45.934897],[48.729512,45.896785],[48.683468,46.086231],[49.245966,46.291542],[49.205762,46.385748],[49.361876,46.410087],[49.347562,46.519073],[49.886289,46.595812],[50.419124,46.879464],[51.177941,47.110174],[52.138399,46.828666],[52.483443,46.990569],[53.03483,46.892694],[53.170274,46.668857],[53.063924,46.475174],[53.135341,46.191548],[52.773916,45.572955],[53.200453,45.332169],[52.426805,45.404671],[51.415549,45.35811],[51.009166,44.922065],[51.310233,44.618853],[51.543604,44.531003],[51.176908,44.501393],[50.860441,44.628904],[50.409616,44.62415],[50.297426,44.581827],[50.252985,44.461705],[50.331274,44.325693],[50.830831,44.192858],[51.30181,43.482204],[51.295453,43.174213],[51.616106,43.158348],[51.898156,42.869425],[52.596666,42.760414],[52.638472,42.555646],[52.462255,42.100557],[52.467526,41.885712]]]}},{"type":"Feature","properties":{"name":"Norwegian Sea","rank":2},"geometry":{"type":"Polygon","coordinates":[[[-6.644628,61.692927],[-7.298128,62.055954],[-7.097055,62.100396],[-7.400783,62.107811],[-13.853438,64.861597],[-13.853981,64.992829],[-13.55604,65.097603],[-13.755021,65.192326],[-13.641255,65.274879],[-13.804759,65.354771],[-13.667713,65.398696],[-13.615856,65.487062],[-13.669315,65.548997],[-9.098871,70.854952],[-8.001909,71.041194],[-7.994003,71.21741],[4.56803989546643,74.0],[22.042505943964116,74.0],[27.59938,71.091475],[27.235268,70.947013],[27.546464,70.804128],[27.183953,70.743796],[26.989237,70.51151],[26.58492,70.409914],[26.644762,70.636386],[26.557945,70.669201],[26.734162,70.85335],[26.661143,70.939598],[26.507147,70.912623],[25.470518,70.340591],[25.418635,70.235274],[25.044032,70.108796],[24.994268,70.21835],[25.146662,70.324183],[25.209087,70.489289],[25.767916,70.85335],[25.436102,70.91208],[25.264691,70.843299],[24.658268,71.000989],[24.263512,70.826375],[24.420143,70.70199],[23.379276,70.247444],[23.286104,70.104558],[23.400412,70.019912],[23.353851,69.983403],[23.046428,70.101923],[22.941112,70.305115],[22.684435,70.374981],[22.321976,70.264394],[21.35573,70.233181],[21.802887,70.065956],[21.974866,69.834704],[21.432987,70.013039],[21.253566,70.002963],[21.163081,69.889739],[20.622287,69.914079],[20.532887,69.692361],[20.739231,69.520382],[20.486843,69.542086],[20.054518,69.332538],[20.338118,69.616681],[20.387366,69.867519],[20.324372,69.945292],[19.960828,69.824653],[19.641727,69.424083],[19.722703,69.781787],[19.197258,69.747914],[18.990862,69.561129],[18.614657,69.490746],[18.915724,69.335691],[18.645302,69.321945],[18.259589,69.470644],[18.078566,69.325123],[18.101355,69.156296],[17.70448,69.100227],[17.390649,68.799108],[17.131389,68.693275],[16.631316,68.616045],[16.328647,68.876365],[16.150828,68.842517],[16.05931,68.680588],[15.76031,68.560983],[15.928051,68.732963],[15.811624,69.024004],[16.114862,69.216628],[16.129693,69.273782],[15.96562,69.301817],[15.483014,69.04359],[15.443843,68.919256],[15.563991,68.873729],[15.412631,68.616045],[15.095131,68.441404],[14.585549,68.400115],[14.257456,68.256713],[14.283914,68.186872],[13.881251,68.163592],[14.118859,68.246687],[13.783893,68.276298],[13.300201,68.160414],[13.199691,68.087395],[13.229301,67.995333],[13.352085,68.009622],[12.831393,67.823871],[13.234572,66.65495],[13.067916,66.430571],[13.118714,66.230531],[14.034162,66.297762],[13.674339,66.179733],[12.783747,66.100358],[13.032983,65.95644],[12.689024,65.901921],[12.122289,65.362186],[12.133916,65.279117],[12.417568,65.183851],[12.915522,65.339423],[12.50857,65.099205],[12.306464,65.085976],[12.159858,65.179097],[11.489408,64.975879],[11.349726,64.906039],[11.29681,64.754704],[11.63281,64.813977],[10.565485,64.418135],[9.650553,63.821789],[8.764716,63.80484],[8.286864,63.687379],[8.763682,63.700608],[8.780581,63.637615],[8.360968,63.498993],[8.593822,63.425948],[8.635628,63.342361],[8.271568,63.286809],[8.157776,63.161365],[8.622916,62.845983],[8.100622,63.091007],[7.571972,63.099482],[6.940176,62.930681],[6.734866,62.720591],[8.095351,62.731701],[7.538124,62.671885],[7.527531,62.61052],[7.690518,62.585663],[7.569854,62.548069],[6.35277,62.611062],[6.135833,62.407302],[6.692491,62.468177],[6.208851,62.352809],[5.718339,62.378751],[5.357947,62.151736],[5.143128,62.159669],[5.096568,62.02686],[5.266945,61.935832],[6.730628,61.869686],[6.015685,61.78765],[5.465383,61.897204],[4.92986,61.878135],[4.927741,61.710936],[5.338879,61.485524],[5.002878,61.433666],[5.032489,61.242102],[4.958953,61.084385],[4.87007,61.071699],[5.024583,60.936229],[5.048922,60.707638],[5.203435,60.590695],[-0.775632,60.590695],[-1.004739,60.548888],[-1.060834,60.403368],[-1.287332,60.466878],[-1.30162,60.607619],[-1.563542,60.504963],[-6.644628,61.692927]],[[25.582191,70.960785],[25.999685,70.975048],[26.146807,71.039618],[25.586428,71.142273],[25.315489,71.052847],[25.582191,70.960785]],[[23.670318,70.597242],[23.826949,70.527375],[24.078303,70.650675],[23.778218,70.747517],[23.689335,70.72266],[23.670318,70.597242]],[[23.546449,70.617344],[23.022605,70.487171],[22.917806,70.38449],[23.09087,70.377643],[23.159135,70.282377],[23.345376,70.315192],[23.641172,70.463865],[23.546449,70.617344]],[[23.440616,70.815781],[22.963333,70.711007],[21.994399,70.657031],[22.358512,70.514663],[22.828922,70.541664],[23.068081,70.594038],[23.440616,70.815781]],[[20.492631,70.203545],[20.405349,70.118873],[20.642389,70.056964],[20.779435,70.089753],[20.819691,70.205663],[20.492631,70.203545]],[[19.613718,70.218893],[19.780943,70.077583],[20.088366,70.101923],[19.683533,70.273385],[19.613718,70.218893]],[[19.249657,70.178662],[19.132714,70.244291],[19.05122,70.037896],[18.686591,69.890799],[18.673879,69.781787],[18.349506,69.768041],[18.227291,69.63575],[18.061668,69.60185],[18.274368,69.535704],[18.784518,69.579112],[19.007812,69.759567],[19.33482,69.820416],[19.592531,69.970174],[19.49941,70.047973],[19.343812,70.011954],[19.254928,70.066473],[19.249657,70.178662]],[[18.052108,69.457414],[17.502839,69.596062],[17.252053,69.503975],[17.39437,69.416642],[17.001733,69.362149],[16.971554,69.137796],[16.810685,69.070591],[17.08271,69.013436],[17.48806,69.197069],[17.950512,69.198128],[17.942089,69.328818],[18.077016,69.396023],[18.052108,69.457414]],[[15.03746,68.894374],[14.872354,68.913933],[14.80197,68.791202],[14.55382,68.818694],[14.373366,68.711284],[14.890337,68.610748],[15.348604,68.672656],[15.396766,68.78376],[15.175591,68.981681],[15.037977,69.00075],[15.03746,68.894374]],[[10.739583,64.870046],[11.178781,64.838317],[11.246012,64.908157],[11.021116,64.978541],[10.739583,64.870046]],[[7.803741,63.413804],[8.102741,63.337607],[8.136072,63.431271],[7.803741,63.413804]],[[-6.958407,62.3163],[-7.172192,62.285604],[-7.013442,62.094065],[-6.725036,61.951723],[-6.840404,62.119464],[-6.655738,62.093523],[-6.630856,62.227933],[-6.958407,62.3163]]]}},{"type":"Feature","properties":{"name":"Greenland Sea","rank":2},"geometry":{"type":"Polygon","coordinates":[[[-7.994003,71.21741],[-9.098871,70.854952],[-13.669315,65.548997],[-14.166701,65.642118],[-14.473633,65.575455],[-14.318061,65.684441],[-14.391597,65.787638],[-14.8271,65.764358],[-14.688478,65.897167],[-14.697986,66.01995],[-15.117625,66.125783],[-14.912314,66.284533],[-14.595874,66.381375],[-15.543077,66.228438],[-15.985453,66.514726],[-16.249519,66.522658],[-16.540561,66.446978],[-16.427829,66.278177],[-16.485009,66.196166],[-16.837933,66.125241],[-17.152798,66.203039],[-17.550215,65.964372],[-17.90686,66.14325],[-18.297405,66.157538],[-18.098967,65.830504],[-18.141807,65.734205],[-18.27676,65.88448],[-18.846131,66.183997],[-19.382713,66.075502],[-19.489606,65.768053],[-20.102902,66.080256],[-20.292348,66.084494],[-20.454792,65.571192],[-20.80459,65.636304],[-20.939517,65.565378],[-21.12948,65.266404],[-21.230016,65.4204],[-21.432175,65.473833],[-21.364969,65.578091],[-21.658647,65.723611],[-21.375021,65.742137],[-21.308875,65.895591],[-21.516846,65.96755],[-21.406776,66.025763],[-22.425938,66.430054],[-22.888959,66.440622],[-23.117033,66.338483],[-22.484694,66.266524],[-22.947715,66.212548],[-22.445524,66.070205],[-22.42754,65.927346],[-22.615927,65.867556],[-22.62174,65.999848],[-22.723336,66.038993],[-23.019132,65.982381],[-23.06254,66.086096],[-23.52768,66.164385],[-27.0,67.71946903615964],[-27.0,68.61773162460143],[-26.341255,68.702267],[-25.69778,68.890136],[-25.543784,69.045708],[-25.092416,69.165288],[-25.188715,69.260553],[-24.295488,69.439431],[-24.220867,69.479119],[-24.296548,69.585469],[-23.739346,69.588621],[-23.865799,69.736803],[-23.049311,69.792898],[-23.088482,69.882867],[-23.033446,69.90085],[-22.28729,70.033142],[-22.206339,70.107762],[-22.269307,70.122025],[-21.52266,70.526316],[-21.674537,70.856528],[-21.752336,71.478299],[-22.298943,71.432255],[-22.417489,71.248649],[-22.47994,71.383576],[-22.503195,71.50052],[-21.959739,71.744458],[-22.370386,71.769857],[-22.496864,71.913802],[-24.572241,72.420205],[-25.203547,72.392687],[-24.700838,72.506479],[-24.65004,72.58265],[-24.813544,72.901752],[-26.392053,72.672619],[-26.657695,72.716027],[-24.629912,73.037764],[-24.358482,72.68745],[-24.069016,72.498521],[-22.29313,72.119629],[-22.280417,72.344525],[-22.07459,72.399044],[-22.006842,72.635567],[-22.036479,72.918702],[-24.132501,73.409215],[-25.056966,73.396528],[-25.398806,73.275889],[-27.0,73.13373085432309],[-26.541811,73.248888],[-27.0,73.384081256058],[-26.062383,73.2531],[-24.778094,73.53993],[-25.521047,73.851617],[-24.677015,73.602381],[-24.157926,73.764309],[-23.760508,73.543108],[-23.23346,73.397587],[-22.347106,73.268991],[-21.548059,73.431461],[-20.509828,73.492827],[-20.337849,73.819861],[-21.02207,73.941017],[-22.168129367063106,74.0],[4.56803989546643,74.0],[-7.994003,71.21741]]]}},{"type":"Feature","properties":{"name":"Bay of Biscay","rank":2},"geometry":{"type":"Polygon","coordinates":[[[-7.999274,43.709219],[-5.882607,48.471719],[-4.759187,48.441023],[-4.7195,48.36325],[-4.30198,48.346817],[-4.241131,48.303434],[-4.577157,48.290205],[-4.329523,48.170083],[-4.678753,48.039394],[-4.427915,47.96901],[-4.312031,47.822973],[-3.900867,47.837778],[-2.964258,47.601229],[-2.786982,47.625569],[-2.770575,47.513922],[-2.427676,47.471056],[-2.529814,47.38163],[-2.434549,47.291145],[-1.975249,47.31073],[-1.742395,47.216007],[-2.027648,47.273678],[-2.148804,47.22394],[-2.196966,47.163091],[-2.018631,47.037672],[-2.092709,46.86515],[-1.78632,46.514861],[-1.146049,46.311127],[-1.03174,45.741213],[-1.210076,45.77085],[-1.195787,45.714213],[-0.790954,45.468181],[-0.548617,45.00038],[-0.69096,45.093527],[-0.82643,45.380848],[-1.080936,45.532208],[-1.245009,44.666473],[-1.152922,44.763857],[-1.076725,44.689753],[-1.245526,44.560123],[-1.48471,43.563698],[-1.63129,43.438279],[-1.991113,43.345158],[-2.33719,43.328208],[-2.874832,43.454686],[-3.045752,43.371617],[-3.604555,43.519256],[-4.523181,43.415541],[-5.846614,43.645192],[-7.061062,43.554164],[-7.503438,43.739914],[-7.999274,43.709219]]]}},{"type":"Feature","properties":{"name":"Baltic Sea","rank":2},"geometry":{"type":"Polygon","coordinates":[[[23.481389,59.070917],[22.919924,58.980948],[22.649553,59.087324],[22.462743,58.974101],[22.056359,58.943379],[22.41086,58.863487],[22.521447,58.696805],[22.266424,58.507902],[21.862108,58.497308],[21.984374,58.386721],[21.882262,58.262361],[22.180693,58.155985],[21.459445,57.322548],[21.350976,57.01776],[21.071562,56.82356],[21.014924,56.258944],[21.062053,55.813389],[21.158326,55.640868],[21.013891,55.401683],[20.678924,55.102709],[20.396874,54.951375],[19.974574,54.921196],[19.858716,54.633875],[19.560233,54.434895],[18.836349,54.369808],[18.669693,54.430657],[18.436322,54.744979],[18.799866,54.633332],[18.759093,54.684673],[18.323616,54.838126],[17.843128,54.816964],[16.559899,54.553957],[16.186279,54.290433],[14.38396,53.924771],[13.827818,54.127446],[13.804512,54.043317],[13.724052,54.153387],[13.447841,54.140675],[13.028745,54.411098],[12.575233,54.467167],[12.463696,54.3991],[12.056399,54.846134],[12.089991,55.187898],[12.409093,55.301664],[12.88586,55.411192],[13.321389,55.346648],[13.806114,55.428684],[14.173843,55.396386],[14.341637,55.527619],[14.202989,55.729234],[14.215133,55.832406],[14.558574,56.048853],[14.754893,56.032963],[14.714172,56.134042],[14.781868,56.162102],[15.920093,56.167399],[16.348749,56.709252],[16.528118,57.068041],[16.476287,57.264877],[16.652503,57.500883],[16.555662,57.812027],[16.596899,57.913106],[16.694826,57.917344],[16.700097,58.16074],[16.769964,58.214199],[16.651935,58.434341],[16.92396,58.492554],[16.788464,58.585158],[16.214339,58.636473],[16.97791,58.65394],[18.285479,59.109545],[18.414101,59.290541],[18.61781,59.327025],[18.508824,59.408002],[18.132568,59.316457],[17.968547,59.360899],[18.895622,59.732918],[20.20531,59.822344],[20.787393,59.663594],[22.930518,59.822344],[23.481389,59.070917]],[[18.900376,57.915225],[18.805137,57.833214],[18.537401,57.830553],[18.136289,57.556461],[18.105024,57.27175],[18.285479,57.083389],[18.146314,56.920402],[18.339997,56.978073],[18.47756,57.163281],[18.907818,57.398228],[18.790822,57.4829],[18.814128,57.706194],[19.076593,57.83585],[18.900376,57.915225]],[[17.025555,57.345311],[16.41226,56.569028],[16.431845,56.243596],[16.528635,56.290673],[17.117643,57.319912],[17.025555,57.345311]],[[14.683993,55.102167],[15.050689,55.004808],[15.132699,55.14449],[14.765487,55.296909],[14.683993,55.102167]],[[13.156283,54.396809],[13.364229,54.245992],[13.482258,54.33751],[13.734128,54.315315],[13.580649,54.464014],[13.657389,54.559771],[13.422985,54.699478],[13.239895,54.638629],[13.156283,54.396809]],[[12.274166,55.064081],[12.119137,54.914323],[12.549343,54.965663],[12.469399,55.017521],[12.274166,55.064081]]]}},{"type":"Feature","properties":{"name":"Barents Sea","rank":2},"geometry":{"type":"Polygon","coordinates":[[[54.691993030645484,74.0],[53.762951,73.765885],[54.204785,73.542049],[54.131249,73.4812],[54.214862,73.41663],[54.14608,73.278525],[53.357601,73.224549],[53.188774,73.10391],[53.369797,72.916583],[52.913081,72.90015],[52.579199,72.791164],[52.528401,72.737163],[52.916801,72.668924],[52.823164,72.591125],[52.863885,72.549861],[52.622039,72.301143],[52.332083,72.154046],[51.582774,72.070976],[51.44361,71.934421],[51.511357,71.648159],[51.937843,71.474604],[53.411552,71.530156],[53.318947,71.398924],[53.410001,71.340194],[53.622185,71.332778],[54.155589,71.125323],[53.670347,71.086721],[53.587768,71.05233],[53.61371,70.914742],[53.383543,70.873452],[54.601143,70.680311],[54.645068,70.741677],[55.051451,70.666565],[55.687537,70.691964],[55.797039,70.615768],[56.142599,70.658091],[56.434726,70.562851],[56.561178,70.593521],[56.26006,70.714702],[57.145897,70.589309],[57.619512,70.726872],[58.476772,70.27075],[58.952505,69.892892],[59.502808,69.866433],[59.577945,69.738379],[59.724551,69.706107],[60.264828,69.699777],[60.170622,69.59074],[60.664339,69.110278],[60.858539,69.145728],[60.933676,68.986978],[60.489156,68.728725],[59.895962,68.706504],[59.922989,68.471583],[59.725585,68.351461],[59.09906,68.444582],[59.112289,68.616561],[59.370516,68.738285],[59.057253,69.006021],[58.353989,68.916052],[58.237045,68.834042],[58.173018,68.889594],[57.12688,68.55411],[56.043639,68.648833],[55.418199,68.567882],[54.92288,68.373656],[54.861489,68.201677],[54.718087,68.184236],[54.476241,68.294281],[53.967745,68.227102],[53.26076,68.267306],[53.34277,68.342986],[53.930693,68.435591],[53.917464,68.537186],[53.758714,68.634028],[53.97038,68.844119],[53.797885,68.907603],[54.491072,68.992275],[53.802122,68.99597],[52.344227,68.608086],[52.722601,68.48427],[52.396626,68.351978],[52.183358,68.374199],[52.285522,68.459413],[51.99448,68.538788],[50.699572,68.317587],[49.155481,67.870431],[48.754368,67.89583],[48.695664,67.874152],[48.877668,67.731267],[48.833226,67.681528],[47.874887,67.58417],[47.908218,67.454513],[47.709264,67.044952],[47.496564,66.929584],[46.492181,66.799928],[45.98632,66.853387],[45.56247,67.185693],[44.902045,67.41325],[45.52857,67.757725],[46.690618,67.848753],[46.683745,67.970451],[45.892114,68.47949],[45.519578,68.546721],[44.047989,68.548839],[43.413505,68.681648],[38.97698,68.275264],[38.430347,68.355673],[37.730803,68.692242],[36.618468,69.003385],[35.289712,69.275358],[35.009781,69.221408],[33.684229,69.310292],[33.43551,69.13038],[33.141316,69.068472],[33.327609,69.152058],[33.454578,69.428295],[32.978845,69.367446],[33.000033,69.470101],[32.377745,69.479119],[32.091458,69.632546],[32.914818,69.60185],[33.007991,69.721998],[31.984539,69.953767],[31.997768,69.809848],[31.788789,69.815635],[31.546943,69.697116],[30.714539,69.795559],[30.484372,69.795017],[30.428303,69.722515],[30.237772,69.862222],[30.088014,69.71776],[29.69486,69.744735],[29.60117,69.976504],[28.780962,70.145331],[30.263197,70.124686],[30.944241,70.274445],[30.960622,70.343769],[30.596045,70.52368],[30.212916,70.54324],[30.237772,70.622098],[30.065276,70.703075],[29.737183,70.646954],[29.102183,70.86074],[28.83176,70.863944],[28.609551,70.759686],[28.193091,70.248503],[28.202599,70.577139],[28.271949,70.668142],[27.898328,70.67765],[28.326984,70.825315],[28.392045,70.975048],[27.59938,71.091475],[22.042505943964116,74.0],[54.691993030645484,74.0]],[[53.205208,71.159739],[52.776552,71.399983],[52.239995,71.324846],[52.738466,71.180901],[53.022635,70.968692],[53.121078,70.981921],[53.04806,71.031143],[53.205208,71.159739]],[[48.631637,69.436253],[48.319924,69.269028],[48.278635,69.040437],[48.438987,68.804948],[48.667087,68.732963],[49.62646,68.859983],[50.093718,69.1256],[50.164618,69.037776],[50.283164,69.089117],[50.167253,69.256858],[49.225347,69.511365],[48.631637,69.436253]]]}},{"type":"Feature","properties":{"name":"North Sea","rank":2},"geometry":{"type":"Polygon","coordinates":[[[-2.940461,58.739671],[-2.451499,59.258244],[-1.64979,59.497428],[-1.199482,60.006493],[-1.004739,60.548888],[-0.775632,60.590695],[5.244156,60.569533],[5.648472,60.688053],[5.137289,60.445691],[5.285962,60.205989],[5.688676,60.123436],[5.205553,60.087986],[5.104991,59.731858],[5.145764,59.638711],[5.87652,60.070003],[6.153299,60.346213],[6.995728,60.511836],[6.720035,60.418173],[6.526868,60.153073],[6.573429,60.360502],[6.517876,60.407605],[6.140587,60.233507],[6.070203,60.083749],[5.730483,59.863091],[5.834197,59.794826],[6.21681,59.818106],[5.772289,59.660958],[5.472255,59.713332],[5.305031,59.642406],[5.131449,59.226514],[5.173256,59.162461],[5.349472,59.166156],[5.562224,58.979914],[5.517214,58.726442],[5.70666,58.523767],[6.389305,58.268175],[6.659677,58.262878],[6.590378,58.097255],[6.731662,58.068135],[6.877183,58.150714],[7.00472,58.024236],[7.125385,58.039042],[8.346705,56.711913],[8.468403,56.66481],[8.772157,56.725143],[8.992816,57.016184],[9.254712,57.011921],[9.196524,56.701836],[9.066868,56.793924],[8.888016,56.735194],[8.671595,56.495467],[8.164133,56.607139],[8.121241,56.139881],[8.202218,55.98219],[8.132352,55.599604],[8.616043,55.418091],[8.669993,55.155626],[8.573151,55.134464],[8.682189,54.792082],[8.957366,54.538067],[8.952043,54.467709],[8.648289,54.397869],[8.645137,54.295187],[8.906568,54.260797],[8.903364,54.000451],[8.977985,53.926373],[9.311866,53.859168],[9.783879,53.554897],[9.585441,53.600398],[9.205516,53.855989],[8.618678,53.875032],[8.528193,53.780852],[8.495378,53.394028],[8.492743,53.51415],[8.333993,53.606211],[8.200616,53.432656],[8.10858,53.467589],[8.167285,53.543244],[8.009052,53.690883],[7.629126,53.697239],[7.20631,53.654374],[7.053399,53.376045],[7.197318,53.282381],[6.816359,53.441131],[5.67493,53.453275],[5.232529,53.377621],[4.923503,53.234735],[4.482703,52.309236],[3.946664,51.81074],[4.18267,51.610209],[4.004852,51.595921],[4.274241,51.471561],[3.743989,51.595921],[3.44871,51.540885],[3.586841,51.454095],[4.226078,51.386373],[3.425972,51.393246],[1.711968,50.906402],[1.375968,51.164629],[1.415139,51.363067],[0.889124,51.359372],[0.424527,51.465748],[0.890726,51.571581],[0.898116,51.689584],[0.752078,51.729789],[1.188641,51.80335],[1.274372,51.845156],[1.232566,51.971092],[1.591355,52.119791],[1.746385,52.469046],[1.656984,52.753731],[1.055833,52.959042],[0.558964,52.967],[0.330347,52.811402],[0.045636,52.905608],[0.35572,53.160115],[0.271074,53.335298],[-0.293542,53.692485],[-0.659722,53.724215],[-0.270262,53.736927],[0.115477,53.60939],[-0.205718,54.021612],[-0.084537,54.117937],[-0.671375,54.503702],[-1.232297,54.703716],[-1.65563,55.570484],[-2.147228,55.902815],[-2.599138,56.027149],[-3.04893,55.952011],[-3.607707,56.016039],[-3.789221,56.095414],[-3.362192,56.027692],[-2.674276,56.253647],[-2.652572,56.318191],[-2.884883,56.397566],[-3.309792,56.363692],[-2.592782,56.561612],[-1.780506,57.473908],[-1.867297,57.612556],[-2.074183,57.702499],[-3.402939,57.708312],[-4.134781,57.577623],[-3.856968,57.818383],[-4.03582,57.852257],[-3.989777,57.95915],[-3.212434,58.321092],[-2.940461,58.739671]]]}},{"type":"Feature","properties":{"name":"Bristol Channel","rank":4},"geometry":{"type":"Polygon","coordinates":[[[-6.403299,51.68005],[-5.168232,51.749374],[-4.902073,51.626074],[-4.386135,51.740899],[-4.090856,51.659948],[-4.234801,51.56892],[-3.890842,51.591683],[-3.562232,51.413865],[-3.292868,51.39061],[-2.432973,51.740899],[-3.136237,51.204859],[-4.188214,51.188452],[-4.296683,51.027067],[-4.523181,50.977302],[-4.582971,50.776229],[-4.893598,50.533893],[-5.70639,50.112135],[-6.403299,51.68005]]]}},{"type":"Feature","properties":{"name":"Inner Seas","rank":4},"geometry":{"type":"Polygon","coordinates":[[[-5.019533,58.564513],[-5.089916,58.384602],[-5.008423,58.262878],[-5.338092,58.238539],[-5.41323,58.069737],[-5.157122,57.881351],[-5.608489,57.881351],[-5.745044,57.668108],[-5.581514,57.546927],[-5.802173,57.468069],[-5.794757,57.378643],[-5.561929,57.232605],[-5.591565,57.102406],[-5.861445,56.902935],[-5.73073,56.853171],[-6.133961,56.706617],[-5.65244,56.531976],[-5.188334,56.757931],[-5.609549,56.055209],[-5.622778,55.813389],[-5.504258,55.802253],[-5.681534,55.623944],[-5.73073,55.333961],[-5.556632,55.389513],[-5.385738,55.769981],[-5.410594,55.99542],[-5.084103,56.197552],[-4.99677,56.233545],[-5.222725,56.065777],[-5.228022,55.886408],[-4.800451,56.158381],[-4.843859,56.050972],[-4.58403,55.938782],[-4.806807,55.940358],[-4.871919,55.873696],[-4.891996,55.699081],[-4.676634,55.50116],[-5.056042,54.987858],[-5.172469,54.98574],[-5.081467,54.806913],[-5.506919,54.583594],[-5.582574,54.663485],[-5.87837,54.641265],[-5.716984,54.817481],[-6.129207,55.217534],[-6.947297,55.182601],[-7.178549,55.056666],[-7.172709,55.1371],[-6.961585,55.237636],[-7.308721,55.365691],[-7.36585,55.36042],[-7.301823,55.299028],[-7.517753,55.24823],[-7.478582,55.047131],[-7.658493,54.970934],[-7.556355,55.122295],[-7.666968,55.256705],[-7.762725,55.24823],[-7.750555,55.185779],[-8.244814,55.14927],[-7.534677,56.959004],[-7.416674,56.96536],[-7.45264,57.01776],[-7.352621,57.117754],[-7.249965,57.115119],[-7.311874,57.533698],[-7.18276,57.533181],[-7.092817,57.626819],[-7.166353,57.663354],[-7.032485,57.77606],[-6.956805,57.750119],[-6.402239,58.04116],[-6.554659,58.093018],[-6.326042,58.1888],[-6.198531,58.36344],[-6.234523,58.500486],[-5.019533,58.564513]],[[-5.251844,55.717065],[-5.392611,55.618104],[-5.331736,55.481058],[-5.105264,55.44876],[-5.105264,55.574205],[-5.251844,55.717065]],[[-5.987381,57.044219],[-5.672516,57.252707],[-6.135537,57.314073],[-6.166259,57.585555],[-6.246667,57.651184],[-6.357798,57.667049],[-6.752554,57.459077],[-6.322864,57.202452],[-6.034484,57.201393],[-5.987381,57.044219]],[[-5.991076,55.803855],[-5.797418,56.005471],[-5.724916,56.118694],[-5.939219,56.045158],[-5.911701,55.974775],[-6.072053,55.893281],[-5.991076,55.803855]],[[-5.760909,56.490712],[-6.102749,56.645768],[-6.286355,56.611894],[-6.310695,56.552104],[-6.138715,56.490712],[-6.184759,56.356819],[-6.313356,56.293851],[-5.777833,56.344132],[-5.760909,56.490712]],[[-6.055103,55.69536],[-6.12869,55.93085],[-6.41335,55.854653],[-6.495903,55.711768],[-6.301703,55.780575],[-6.253024,55.606994],[-6.055103,55.69536]]]}},{"type":"Feature","properties":{"name":"Irish Sea","rank":2},"geometry":{"type":"Polygon","coordinates":[[[-6.62344,52.175885],[-6.325009,52.246785],[-6.463114,52.345229],[-6.217031,52.543124],[-6.027611,52.927312],[-6.141919,53.57766],[-6.345111,53.987222],[-6.156725,54.017375],[-6.21809,54.088818],[-6.019136,54.051249],[-5.825995,54.23594],[-5.606913,54.27245],[-5.557717,54.370868],[-5.656135,54.381978],[-5.67094,54.54972],[-5.484156,54.441768],[-5.506919,54.583594],[-5.081467,54.806913],[-4.911064,54.689427],[-4.817917,54.846058],[-4.517367,54.758208],[-4.253301,54.846601],[-3.958022,54.780972],[-3.550579,54.947654],[-3.036217,54.952951],[-3.464848,54.773039],[-3.591842,54.564525],[-3.569622,54.467709],[-3.165874,54.127963],[-2.867416,54.177184],[-2.899688,53.960763],[-3.045209,53.84382],[-2.925113,53.73269],[-3.064794,53.513091],[-2.912917,53.350103],[-2.749413,53.310416],[-2.918757,53.305119],[-3.064794,53.426817],[-3.165357,53.394545],[-3.097609,53.26016],[-3.3262,53.346925],[-3.764364,53.307754],[-4.268649,53.14425],[-4.68299,52.806131],[-4.101424,52.915659],[-4.078686,52.607694],[-3.980242,52.541548],[-4.217851,52.277481],[-5.18358,51.949413],[-5.262412,51.880089],[-5.168232,51.749374],[-6.403299,51.68005],[-6.62344,52.175885]],[[-4.049592,53.305635],[-4.315209,53.417308],[-4.567648,53.386612],[-4.553334,53.260677],[-4.372906,53.134199],[-4.049592,53.305635]],[[-4.614183,54.058664],[-4.337973,54.269272],[-4.424763,54.407377],[-4.698855,54.22483],[-4.785103,54.072927],[-4.614183,54.058664]]]}},{"type":"Feature","properties":{"name":"Kara Sea","rank":2},"geometry":{"type":"Polygon","coordinates":[[[64.0,69.56697463144894],[61.015687,69.851628],[60.276456,69.652674],[60.440477,69.725693],[60.450553,69.934698],[59.048262,70.460712],[58.794272,70.433195],[58.476772,70.27075],[57.556518,70.766017],[56.89506,70.926885],[56.043122,71.345465],[55.471116,71.86936],[55.298051,71.935506],[55.518193,72.220708],[55.355722,72.46519],[55.441453,72.57526],[55.616637,72.599083],[55.723503,72.766282],[56.121464,72.806512],[56.18916,73.032984],[56.397674,73.13936],[56.489193,73.29917],[56.963893,73.366375],[57.542772,73.657933],[57.313122,73.837845],[57.844924,73.805056],[57.771036975798424,74.0],[64.0,74.0],[64.0,69.56697463144894]]]}},{"type":"Feature","properties":{"name":"Tyrrhenian Sea","rank":3},"geometry":{"type":"Polygon","coordinates":[[[12.453018,37.729635],[8.90233,38.925557],[9.022426,39.043018],[9.056274,39.239336],[9.486532,39.139317],[9.562703,39.165775],[9.617222,39.354187],[9.706622,40.017222],[9.643164,40.268576],[9.794472,40.55644],[9.553712,40.932153],[9.61562,41.017342],[9.202364,41.248594],[9.187016,41.386699],[9.55056,42.129651],[9.463226,42.981098],[9.383851,43.021302],[9.764862,44.092864],[10.188195,43.947344],[10.320487,43.5129],[10.521043,43.203875],[10.514687,42.967326],[10.70837,42.936088],[11.16767,42.535001],[11.141212,42.389997],[11.296241,42.423354],[11.637564,42.287342],[11.806908,42.082031],[12.630837,41.469795],[13.088535,41.243839],[13.733612,41.235364],[14.044239,40.812031],[14.308822,40.812548],[14.460699,40.728961],[14.340035,40.598788],[14.766003,40.668629],[14.947491,40.469132],[14.950695,40.23894],[15.294653,40.070138],[15.692562,39.990247],[16.023859,39.353645],[16.10742,39.023975],[16.210101,38.940879],[16.196872,38.759392],[15.927018,38.671542],[15.822218,38.302727],[15.690443,38.247692],[15.498879,38.291074],[15.118953,38.152969],[14.789826,38.167257],[14.505658,38.045559],[13.788647,37.980989],[13.29121,38.191597],[12.90281,38.034966],[12.734551,38.183122],[12.547741,38.052949],[12.453018,37.729635]]]}},{"type":"Feature","properties":{"name":"White Sea","rank":3},"geometry":{"type":"Polygon","coordinates":[[[38.990726,68.315469],[43.333045,68.673173],[44.16917,68.327122],[44.225239,67.99585],[43.78232,67.2545],[44.291901,67.099445],[44.404091,67.004205],[44.488789,66.671874],[44.097185,66.235311],[44.104574,66.008839],[43.843712,66.14219],[43.542076,66.123664],[43.653232,66.251202],[43.233051,66.41574],[42.602289,66.422638],[42.210685,66.51948],[41.475691,66.123664],[40.691449,65.963312],[40.327906,65.751646],[39.816774,65.598193],[39.749026,65.447918],[39.798222,65.350017],[40.281345,64.998126],[40.444901,64.778527],[40.058051,64.770569],[39.758018,64.576885],[38.009649,64.878521],[37.528128,65.108171],[37.140762,65.194445],[36.883051,65.172198],[36.785693,64.98699],[36.534339,64.938853],[36.578781,64.791213],[37.183602,64.408627],[37.740828,64.397],[37.95358,64.32026],[38.062049,64.091127],[37.967843,63.949327],[37.442397,63.813315],[36.364995,64.00276],[36.146456,64.189028],[35.646899,64.378448],[35.432081,64.346719],[35.035206,64.440382],[34.869583,64.559961],[34.858472,64.706542],[34.95211,64.755763],[34.832531,64.800205],[34.803437,64.985956],[34.406562,65.395518],[34.615593,65.509826],[34.776978,65.768053],[34.691764,65.951685],[34.112885,66.22526],[33.360372,66.329518],[33.65622,66.442741],[33.217539,66.53165],[33.180487,66.679806],[32.86247,66.721612],[32.463476,66.916355],[32.501045,67.003662],[31.895139,67.161353],[32.930166,67.086732],[32.847639,67.021646],[33.150308,66.843853],[34.45152,66.651229],[34.395968,66.613144],[34.482733,66.55015],[34.824572,66.611025],[35.513574,66.395663],[38.397533,66.064392],[39.289158,66.132139],[40.103578,66.299881],[40.521589,66.446461],[41.275651,66.914236],[41.358747,67.20949],[41.133851,67.267186],[40.966626,67.713283],[40.380822,67.831803],[39.809333,68.150879],[39.746391,68.16199],[39.82313,68.058818],[39.569089,68.071504],[38.990726,68.315469]],[[35.816243,65.182275],[35.528922,65.151062],[35.558533,65.093366],[35.842185,65.001304],[35.816243,65.182275]]]}},{"type":"Feature","properties":{"name":"Sea of Azov","rank":5},"geometry":{"type":"Polygon","coordinates":[[[36.699962,45.378212],[36.170795,45.45335],[36.01313,45.371856],[35.457505,45.316304],[35.02301,45.700983],[34.857387,45.987271],[34.84948,46.189946],[35.063783,46.267202],[35.230491,46.440783],[35.280203,46.279372],[35.014587,46.105817],[35.132564,46.125919],[35.400351,46.38151],[35.826837,46.62439],[36.279264,46.658806],[36.558678,46.762521],[36.794685,46.714358],[37.047641,46.87626],[37.339716,46.917033],[37.543476,47.074698],[38.178476,47.080021],[38.57747,47.239287],[38.76211,47.261508],[38.552562,47.150378],[38.667955,47.144048],[39.19552,47.268924],[39.270658,47.044028],[38.438822,46.813319],[38.50073,46.66356],[37.76677,46.636043],[37.913893,46.406393],[38.077914,46.394223],[38.492255,46.090469],[38.183747,46.094706],[38.079516,45.934897],[38.014404,46.047603],[37.93291,46.001559],[37.612258,45.56448],[37.647191,45.377153],[37.213781,45.272379],[36.866102,45.426892],[36.699962,45.378212]]]}},{"type":"Feature","properties":{"name":"Gulf of Finland","rank":4},"geometry":{"type":"Polygon","coordinates":[[[22.940026,59.809114],[23.463405,59.986365],[24.445516,60.021298],[24.600545,60.114445],[25.656243,60.332984],[25.757839,60.267381],[26.035651,60.341459],[25.95576,60.474268],[26.377491,60.424012],[26.569572,60.624569],[26.534691,60.412902],[27.205141,60.543592],[27.462283,60.464733],[28.51271,60.677485],[28.650789,60.610797],[28.622212,60.491734],[28.491522,60.539897],[28.643399,60.375333],[29.069368,60.191701],[29.721318,60.195396],[30.172712,59.957271],[30.12243,59.873684],[29.147193,59.999594],[28.947153,59.8287],[28.517981,59.849319],[28.334374,59.692687],[28.058164,59.781597],[28.063951,59.554065],[27.892489,59.414358],[25.509172,59.639254],[25.443543,59.521251],[24.380455,59.472546],[24.053395,59.372552],[24.083574,59.292118],[23.494618,59.195819],[23.481389,59.070917],[22.940026,59.809114]]]}},{"type":"Feature","properties":{"name":"English Channel","rank":3},"geometry":{"type":"Polygon","coordinates":[[[-6.570524,49.741719],[-5.70639,50.112135],[-5.622261,50.050744],[-5.433875,50.104177],[-5.118493,50.038574],[-4.817401,50.25608],[-4.506774,50.341269],[-4.17235,50.391007],[-3.679692,50.24019],[-3.404515,50.63231],[-2.999165,50.71644],[-2.433489,50.599496],[-2.036098,50.603191],[-1.962019,50.627556],[-2.031343,50.725431],[-1.600594,50.732847],[-1.334409,50.820671],[-1.416445,50.896894],[-0.78514,50.765635],[-0.204116,50.814341],[0.204928,50.763],[0.960024,50.925987],[1.044205,51.047169],[1.375968,51.164629],[1.711968,50.906402],[1.579677,50.739177],[1.592906,50.252359],[1.245795,49.998344],[0.186945,49.703091],[0.129248,49.508348],[0.417112,49.448558],[-0.16337,49.296681],[-1.138633,49.387709],[-1.258755,49.680327],[-1.856186,49.684048],[-1.81332,49.490364],[-1.583128,49.202501],[-1.565661,48.805626],[-1.376215,48.65269],[-1.437607,48.641579],[-1.824431,48.630469],[-1.905925,48.697131],[-2.003826,48.582306],[-2.07948,48.645274],[-2.446202,48.648452],[-2.692259,48.536805],[-3.003403,48.790795],[-3.231503,48.841076],[-4.531113,48.619875],[-4.824274,48.418802],[-5.882607,48.471719],[-6.570524,49.741719]],[[-1.312731,50.773594],[-1.515923,50.70321],[-1.563542,50.666184],[-1.251339,50.588902],[-1.065614,50.689981],[-1.312731,50.773594]]]}},{"type":"Feature","properties":{"name":"Golfe du Lion","rank":4},"geometry":{"type":"Polygon","coordinates":[[[3.263329,41.96242],[3.150278,42.162466],[3.16666,42.256646],[3.30691,42.288944],[3.091005,42.591096],[3.042843,42.83767],[3.258747,43.193281],[4.052497,43.593334],[4.224476,43.479569],[4.711837,43.373193],[5.060033,43.444635],[5.073262,43.366836],[5.320378,43.345158],[5.405696,43.229997],[3.263329,41.96242]]]}},{"type":"Feature","properties":{"name":"Gulf of Bothnia","rank":3},"geometry":{"type":"Polygon","coordinates":[[[22.930518,59.822344],[20.787393,59.663594],[20.20531,59.822344],[18.97076,59.757257],[18.852782,60.026052],[18.535282,60.153073],[18.557503,60.253609],[18.162747,60.408122],[17.955835,60.589635],[17.661072,60.535143],[17.592808,60.627747],[17.250968,60.70074],[17.130872,61.575467],[17.196449,61.724708],[17.46527,61.684478],[17.374268,61.866508],[17.51028,62.166025],[17.63358,62.23323],[17.429303,62.334826],[17.378505,62.46288],[17.646241,62.45071],[18.037328,62.600469],[17.902918,62.659742],[17.974335,62.721107],[17.879612,62.872984],[18.170137,62.789372],[18.463297,62.895748],[18.501899,62.988869],[18.313022,62.996284],[18.530477,63.063489],[18.606699,63.178315],[19.03427,63.237587],[19.354406,63.477289],[19.722187,63.463543],[19.913751,63.61064],[20.762537,63.867833],[21.018645,64.177918],[21.519751,64.463146],[21.138224,64.80868],[21.573753,65.125663],[21.410197,65.317202],[21.609203,65.26165],[21.523472,65.358492],[21.565795,65.40823],[21.879574,65.424095],[21.920347,65.532589],[22.147362,65.552692],[22.08597,65.610879],[22.253712,65.59765],[22.400835,65.862233],[22.538397,65.794511],[22.746343,65.870708],[23.102497,65.735264],[23.691453,65.828385],[24.404227,65.780223],[24.628089,65.859081],[24.581528,65.756943],[24.674649,65.670695],[25.347735,65.47913],[25.255699,65.143104],[25.372643,65.009236],[25.228156,64.951023],[25.287945,64.860537],[24.942385,64.883818],[24.557706,64.800748],[23.598849,64.040872],[22.532041,63.647692],[22.398199,63.49106],[22.318824,63.504289],[22.345799,63.442381],[22.243118,63.438144],[22.319858,63.310606],[21.545176,63.204256],[21.65101,63.03915],[21.473708,63.033336],[21.118122,62.689378],[21.165768,62.414201],[21.343535,62.277672],[21.256253,61.989808],[21.605999,61.591357],[21.498047,61.552186],[21.565278,61.484464],[21.506522,61.484464],[21.513395,61.281247],[21.360485,60.967442],[21.436139,60.596508],[21.613441,60.530879],[21.805522,60.593873],[21.854201,60.505506],[22.584958,60.380604],[22.512456,60.281127],[22.589712,60.22821],[22.442641,60.156768],[22.462743,60.029256],[22.793472,60.076876],[22.867008,60.216041],[23.198254,60.021841],[22.930518,59.822344]],[[24.99742,65.038873],[24.576774,65.04311],[24.578324,64.978541],[24.99742,65.038873]],[[22.108191,60.315001],[22.258466,60.165785],[22.36063,60.165785],[22.312985,60.270017],[22.415614,60.303348],[22.174854,60.370553],[22.108191,60.315001]],[[20.033847,60.093283],[20.258743,60.261025],[19.888326,60.406003],[19.787816,60.354146],[19.871428,60.301772],[19.847605,60.220795],[19.778824,60.285364],[19.672422,60.232965],[19.79996,60.08163],[20.033847,60.093283]]]}},{"type":"Feature","properties":{"name":"Adriatic Sea","rank":3},"geometry":{"type":"Polygon","coordinates":[[[19.991008,39.756333],[19.838614,39.82036],[19.626947,39.743104],[18.369091,39.801318],[18.460662,40.220956],[17.954749,40.6554],[15.90056,41.512118],[15.913789,41.621129],[16.151345,41.758692],[16.164574,41.896306],[15.168718,41.933875],[14.182887,42.506424],[14.010339,42.689513],[13.564268,43.571088],[12.691143,43.994963],[12.396381,44.224097],[12.248224,44.722568],[12.27892,44.832122],[12.384753,44.798248],[12.523401,44.968108],[12.225487,45.241683],[12.274166,45.445934],[13.030347,45.637499],[13.206564,45.771393],[13.465308,45.710001],[13.628295,45.77085],[13.783324,45.627448],[13.517191,45.481927],[13.62938,45.108332],[13.860581,44.837393],[13.965897,44.835817],[14.312491,45.337982],[14.550616,45.297778],[14.85437,45.080815],[14.895143,44.706677],[14.981391,44.602963],[15.47087,44.271717],[15.123191,44.256885],[15.185616,44.172239],[15.941281,43.656819],[15.985722,43.519773],[16.393708,43.543596],[16.903289,43.392235],[17.723497,42.850899],[17.219755,43.026056],[17.045658,43.014946],[17.82406,42.797466],[18.517247,42.432862],[18.64587,42.442914],[18.633158,42.377827],[18.89402,42.249256],[19.186664,41.94868],[19.577699,41.787295],[19.575581,41.640172],[19.440654,41.42481],[19.461324,40.933212],[19.337456,40.663875],[19.459205,40.405622],[19.322108,40.407224],[19.484578,40.209846],[19.851843,40.04368],[19.991008,39.756333]],[[17.193814,43.125559],[16.376241,43.2139],[16.679478,43.122898],[17.193814,43.125559]],[[16.448743,43.386964],[16.42337,43.317098],[16.490033,43.286402],[16.891145,43.314462],[16.448743,43.386964]],[[14.741664,44.697169],[15.038545,44.392898],[15.162878,44.309285],[15.240135,44.350032],[14.741664,44.697169]],[[14.687145,44.955396],[14.810445,44.9771],[14.571287,45.224733],[14.43791,45.098798],[14.687145,44.955396]],[[14.480233,44.621514],[14.467572,44.970227],[14.331043,45.164944],[14.312491,44.90036],[14.480233,44.621514]]]}},{"type":"Feature","properties":{"name":"Ionian Sea","rank":4},"geometry":{"type":"Polygon","coordinates":[[[15.111564,36.63425],[15.115801,36.839044],[15.295687,37.054948],[15.099368,37.458696],[15.234295,37.784671],[15.576703,38.220174],[15.690443,38.247692],[15.646001,38.034423],[15.724343,37.939183],[16.056622,37.941819],[16.282603,38.24981],[16.545585,38.409077],[16.616485,38.800138],[17.174797,38.998059],[17.114439,39.380646],[16.597985,39.638873],[16.521762,39.747342],[16.669401,40.137344],[17.031343,40.513574],[17.180068,40.503006],[17.476381,40.315136],[17.864781,40.280229],[18.078049,39.936787],[18.219333,39.852658],[19.648083,39.744706],[19.884089,39.461597],[20.099476,39.376408],[19.84652,39.667967],[19.998397,39.756876],[20.300549,39.327186],[20.713289,39.035085],[21.118122,39.029789],[21.111766,38.896437],[20.893226,38.940879],[20.768324,38.874217],[21.182666,38.345567],[21.303331,38.37417],[21.330822,38.487393],[21.472674,38.321253],[21.965306,38.412255],[22.319858,38.356703],[22.421453,38.438713],[23.183474,38.1339],[22.892949,38.05083],[22.920441,37.958226],[22.846389,37.96776],[21.824539,38.328126],[21.658399,38.17519],[21.403893,38.196894],[21.124995,37.891563],[21.679018,37.387253],[21.582745,37.080889],[21.738291,36.863383],[21.892287,36.737448],[21.955797,36.989861],[22.080699,37.029006],[22.375927,36.701998],[22.374893,36.513611],[22.454268,36.462813],[15.111564,36.63425]],[[20.818606,37.664549],[20.993789,37.707931],[20.691637,37.929649],[20.619651,37.855054],[20.818606,37.664549]],[[20.563014,38.474706],[20.352432,38.179944],[20.45191,38.23392],[20.523326,38.106408],[20.761451,38.070416],[20.788995,38.141858],[20.624922,38.267794],[20.563014,38.474706]]]}},{"type":"Feature","properties":{"name":"Strait of Gibraltar","rank":4},"geometry":{"type":"MultiPolygon","coordinates":[[[[-5.283651,35.899127],[-5.401138,35.926955],[-5.414136,35.920853],[-5.397365,35.929952],[-5.283651,35.899127]]],[[[-5.451123,36.119522],[-5.407313,36.165028],[-5.367685,36.134549],[-5.451123,36.119522]]],[[[-5.629479,35.828194],[-5.629961,35.82802],[-5.641909,35.826934],[-5.629479,35.828194]]],[[[-5.92369,35.778566],[-5.748197,35.81616],[-5.740649,35.816925],[-5.92369,35.778566]]],[[[-5.742074,36.065492],[-5.960923,36.181823],[-6.034975,36.189755],[-5.960793,36.18358],[-5.742074,36.065492]]]]}},{"type":"Feature","properties":{"name":"Balearic Sea","rank":4},"geometry":{"type":"Polygon","coordinates":[[[4.28163,39.816149],[3.18361,39.317135],[1.579677,38.659372],[1.436274,38.768383],[1.40563,38.671025],[1.562778,38.660431],[0.228209,38.740349],[-0.133759,38.969482],[-0.328992,39.417129],[-0.075003,39.875938],[0.595964,40.614653],[0.891243,40.722605],[0.71451,40.822625],[1.033095,41.062326],[2.082385,41.287222],[3.24712,41.961393],[4.128151,40.057452],[3.853543,40.063265],[3.842949,39.976475],[4.28163,39.816149]],[[2.499414,39.478004],[2.700487,39.542031],[2.799964,39.384857],[3.073022,39.301271],[3.244484,39.386459],[3.44871,39.761088],[3.145524,39.790207],[3.197356,39.961127],[2.904712,39.90821],[2.371359,39.612931],[2.499414,39.478004]],[[1.408783,38.857293],[1.623602,39.038806],[1.61306,39.087485],[1.302432,39.03139],[1.223574,38.903853],[1.408783,38.857293]]]}},{"type":"Feature","properties":{"name":"Aegean Sea","rank":4},"geometry":{"type":"Polygon","coordinates":[[[26.253674,40.31462],[26.112908,39.46741],[26.899268,39.549421],[26.681762,39.292253],[26.853741,39.11552],[26.815139,38.961007],[27.013576,38.886929],[26.763824,38.709653],[26.906658,38.481579],[27.144266,38.451943],[26.861699,38.37311],[26.727289,38.418611],[26.674372,38.335541],[26.586522,38.557233],[26.441518,38.641388],[26.37222,38.562013],[26.416662,38.367813],[26.290726,38.277328],[27.232116,37.978871],[27.224158,37.725398],[27.068095,37.65765],[27.219404,37.389372],[27.520005,37.249148],[27.535302,37.163959],[27.30038,37.126907],[27.262812,36.976632],[28.242287,37.029006],[28.005247,36.832171],[27.46652,36.744838],[27.304101,36.850671],[26.331447,36.511493],[26.270107,36.590351],[25.364168,36.65859],[24.70271,36.916817],[24.424897,37.132204],[24.330691,37.547062],[24.056031,37.712169],[23.967147,38.275209],[23.684064,38.352466],[23.252772,38.660974],[22.569093,38.867344],[23.06653,39.037747],[22.965451,39.030848],[22.886076,39.170038],[22.838947,39.258379],[22.921526,39.306542],[23.16177,39.257862],[23.154897,39.101231],[23.32791,39.174793],[22.592399,40.036807],[22.629399,40.495591],[22.811456,40.57866],[22.922043,40.59083],[22.851143,40.490836],[22.89667,40.399808],[23.312045,40.216202],[23.395658,39.989704],[23.627426,39.924101],[23.673987,39.959008],[23.433226,40.11564],[23.426353,40.263796],[23.664478,40.223592],[23.947045,39.965364],[23.967664,40.11458],[23.727989,40.329942],[23.913197,40.358545],[24.343403,40.147937],[24.212714,40.327849],[23.866637,40.418334],[23.762922,40.748004],[24.082489,40.724181],[24.477297,40.947501],[24.793195,40.857532],[25.104339,40.994604],[25.855766,40.844303],[26.010795,40.769166],[26.105518,40.611475],[26.791833,40.626823],[26.253674,40.31462]],[[26.788164,37.657133],[27.055383,37.709533],[27.039518,37.76984],[26.743154,37.809527],[26.581251,37.723796],[26.788164,37.657133]],[[26.34788,39.383281],[25.909716,39.287499],[25.855766,39.178487],[26.072187,39.095418],[26.27326,39.197556],[26.107637,39.081129],[26.390203,38.973694],[26.547352,38.994338],[26.488647,39.074773],[26.595514,39.048857],[26.34788,39.383281]],[[25.998651,38.161444],[26.156833,38.302727],[26.160553,38.540852],[26.012397,38.601701],[25.846206,38.574183],[25.99121,38.353525],[25.874266,38.269396],[25.998651,38.161444]],[[25.362049,37.070296],[25.456772,36.929529],[25.545656,36.96764],[25.587979,37.152306],[25.525553,37.196231],[25.362049,37.070296]],[[25.449331,40.034688],[25.058295,39.999755],[25.062016,39.852116],[25.249343,39.893922],[25.357295,39.808191],[25.449331,40.034688]],[[24.700074,37.961404],[24.714337,37.898979],[24.96197,37.692583],[24.956182,37.904793],[24.700074,37.961404]],[[24.774126,40.61517],[24.719091,40.78609],[24.516416,40.687129],[24.646072,40.579203],[24.774126,40.61517]],[[23.312562,39.035085],[22.870212,38.870522],[23.252255,38.801198],[23.617401,38.552479],[23.650732,38.442951],[24.040166,38.390034],[24.359268,38.018558],[24.578324,38.02016],[24.563545,38.147672],[24.275656,38.220174],[24.127499,38.648261],[23.524797,38.813368],[23.312562,39.035085]]]}},{"type":"Feature","properties":{"name":"Vestfjorden","rank":5},"geometry":{"type":"Polygon","coordinates":[[[16.631316,68.616045],[16.525483,68.4906],[17.571104,68.447244],[16.951451,68.354639],[16.38792,68.389547],[16.203745,68.316528],[16.259866,68.144549],[16.392157,68.091632],[16.258781,68.001121],[16.312214,67.881542],[16.007943,68.228678],[15.315789,68.068869],[15.621662,67.948204],[15.04857,67.955646],[14.798818,67.809582],[14.781351,67.674629],[15.304162,67.765115],[15.24861,67.602153],[15.691528,67.521202],[15.575618,67.44392],[15.594687,67.34868],[15.409478,67.474073],[14.961805,67.574119],[14.44163,67.271424],[15.415835,67.202643],[14.108783,67.119004],[13.651601,66.906821],[13.959541,66.794114],[13.620905,66.794631],[13.234572,66.65495],[12.831393,67.823871],[13.424018,68.082615],[14.628958,68.198525],[15.279822,68.373656],[15.437539,68.312833],[15.912703,68.389004],[16.525483,68.651469],[16.631316,68.616045]]]}},{"type":"Feature","properties":{"name":"Skagerrak","rank":5},"geometry":{"type":"Polygon","coordinates":[[[7.125385,58.039042],[7.875726,58.079789],[8.52132,58.300473],[9.396047,58.805817],[9.309747,58.856614],[9.69608,59.009525],[9.557432,59.112723],[9.842635,58.958753],[10.179203,59.009008],[10.431074,59.279431],[10.39826,59.519132],[10.569722,59.586854],[10.533755,59.695866],[10.595095,59.764673],[10.64486,59.388959],[10.834305,59.184166],[11.366108,59.104791],[11.38621,59.065646],[11.19573,59.078332],[11.147051,58.988389],[11.256554,58.370313],[10.580833,57.736373],[9.962214,57.580775],[9.433616,57.174392],[8.618678,57.111424],[8.278958,56.841027],[7.125385,58.039042]]]}},{"type":"Feature","properties":{"name":"Karskiye Strait","rank":7},"geometry":{"type":"MultiPolygon","coordinates":[[[[58.79177,70.431614],[59.005422,70.46495],[59.044438,70.454744],[58.79177,70.431614]]],[[[58.742374,70.400404],[58.715052,70.373095],[58.686543,70.365129],[58.742374,70.400404]]],[[[58.61542,70.350642],[58.655206,70.356372],[58.524904,70.319962],[58.61542,70.350642]]],[[[58.484265,70.260518],[58.520129,70.318344],[58.523578,70.319513],[58.484265,70.260518]]],[[[57.625351,70.728991],[57.356315,70.648712],[57.578739,70.71602],[57.517878,70.780018],[57.625351,70.728991]]]]}},{"type":"Feature","properties":{"name":"Sognefjorden","rank":7},"geometry":{"type":"Polygon","coordinates":[[[4.87007,61.071699],[4.958953,61.084385],[5.032489,61.242102],[5.451068,61.102395],[6.383466,61.133607],[6.599887,61.289722],[6.657041,61.206652],[7.173547,61.165879],[7.276176,61.18071],[7.331212,61.372275],[7.442316,61.434726],[7.34656,61.300832],[7.403714,61.222],[7.604787,61.210347],[7.04017,61.091284],[7.038568,60.953179],[6.777706,61.142625],[5.095483,61.071156],[5.008718,61.038368],[5.024583,60.936229],[4.87007,61.071699]]]}},{"type":"Feature","properties":{"name":"Trondheimsfjorden","rank":7},"geometry":{"type":"Polygon","coordinates":[[[9.650553,63.821789],[9.594484,63.678904],[9.767497,63.699549],[9.924128,63.521756],[10.054818,63.512764],[10.934816,63.770449],[11.047574,63.84507],[10.914197,63.921267],[11.075066,63.987955],[11.306835,64.048804],[11.457678,64.00276],[11.175628,63.899046],[11.370862,63.80484],[10.725268,63.624928],[10.673437,63.55824],[10.760201,63.461424],[9.979164,63.395278],[9.697114,63.624385],[9.084335,63.463543],[9.135649,63.593716],[8.780581,63.637615],[8.763682,63.700608],[8.810243,63.762],[9.650553,63.821789]]]}},{"type":"Feature","properties":{"name":"Kattegat","rank":5},"geometry":{"type":"Polygon","coordinates":[[[11.256554,58.370313],[11.431737,58.34016],[11.449203,58.118417],[11.549197,58.000956],[11.703193,57.973438],[11.734922,57.717847],[11.878893,57.679219],[11.96142,57.426288],[12.053508,57.446907],[12.421289,56.90663],[12.883741,56.617707],[12.91976,56.515569],[12.65621,56.440431],[12.801731,56.263698],[12.471001,56.290673],[12.64298,56.084353],[12.21913,56.118694],[11.86618,55.968419],[11.934445,55.895917],[11.81962,55.697479],[11.690997,55.729234],[11.695803,55.908086],[11.464919,55.919688],[10.898872,56.370215],[10.845933,56.521925],[10.490347,56.520323],[10.282918,56.620369],[10.296147,56.999234],[10.524195,57.243173],[10.460168,57.614649],[11.256554,58.370313]]]}},{"type":"Feature","properties":{"name":"Gulf of Gab\u00e8s","rank":5},"geometry":{"type":"Polygon","coordinates":[[[10.707802,33.688383],[10.45438,33.662442],[10.305139,33.728071],[10.159101,33.850311],[10.040039,34.140294],[10.118328,34.280001],[10.690903,34.678452],[11.112635,35.230899],[11.187772,34.770539],[11.123745,34.68163],[11.181984,34.708631],[10.926393,33.889999],[10.745422,33.88894],[10.707802,33.688383]]]}},{"type":"Feature","properties":{"name":"Gulf of Riga","rank":5},"geometry":{"type":"Polygon","coordinates":[[[23.477151,59.025958],[23.432193,58.920642],[23.50361,58.789952],[23.68086,58.787291],[23.509449,58.658694],[23.767676,58.360779],[24.114787,58.266056],[24.337047,58.381424],[24.529128,58.354423],[24.301597,57.783993],[24.382574,57.250046],[23.93118,57.008769],[23.647529,56.9712],[23.287189,57.08972],[23.136914,57.323607],[22.648468,57.595606],[22.55483,57.724177],[21.739893,57.572869],[22.269576,58.16074],[22.730479,58.230606],[23.126837,58.435917],[23.323156,58.450748],[22.964366,58.605777],[22.462743,58.602625],[22.521447,58.696805],[22.66118,58.708975],[22.767531,58.821164],[23.008859,58.833851],[22.919924,58.980948],[23.477151,59.025958]]]}},{"type":"Feature","properties":{"name":"Waddenzee","rank":7},"geometry":{"type":"Polygon","coordinates":[[[4.763151,53.007747],[4.885935,53.070714],[4.923503,53.234735],[5.232529,53.377621],[5.67493,53.453275],[6.085035,53.407774],[5.532045,53.268609],[5.358464,53.09663],[4.712922,52.872277],[4.763151,53.007747]]]}},{"type":"Feature","properties":{"name":"Gulf of Sidra","rank":5},"geometry":{"type":"Polygon","coordinates":[[[19.984135,32.029441],[19.961345,31.555852],[20.141283,31.195486],[20.124032684154148,31.0],[17.604666213641913,31.0],[15.832295,31.361109],[15.496243,31.656931],[15.359197,32.149046],[19.984135,32.029441]]]}},{"type":"Feature","properties":{"name":"Sea of Crete","rank":5},"geometry":{"type":"Polygon","coordinates":[[[23.22156,35.789185],[23.026843,36.15061],[23.097226,36.246393],[23.009376,36.318869],[23.086116,36.467568],[23.160168,36.447982],[23.041106,36.644327],[23.060174,36.853332],[22.725208,37.542308],[22.77492,37.585174],[23.015164,37.481976],[23.16177,37.33382],[23.489295,37.44017],[23.396174,37.579877],[23.197737,37.620107],[23.036351,37.878334],[23.501491,38.034966],[23.971385,37.676719],[24.056031,37.712169],[24.330691,37.547062],[24.424897,37.132204],[24.70271,36.916817],[25.364168,36.65859],[26.270107,36.590351],[26.331447,36.511493],[27.304101,36.850671],[27.540624,36.684014],[28.084054,36.751736],[28.01951,36.63425],[28.084622,36.642725],[28.135937,36.415194],[27.914762,36.345327],[27.716324,36.171772],[27.737977,35.923053],[27.170208,35.611909],[27.223124,35.820398],[27.158012,35.788643],[27.07073,35.597621],[27.106697,35.447346],[26.285455,35.309757],[25.79117,35.122973],[25.730347,35.348385],[25.475789,35.306062],[24.72121,35.424582],[24.312708,35.363733],[24.255553,35.468507],[24.108947,35.496025],[24.197883,35.537289],[24.166102,35.594985],[23.852322,35.535712],[23.73698,35.655292],[23.672953,35.514008],[23.22156,35.789185]]]}},{"type":"Feature","properties":{"name":"Ligurian Sea","rank":5},"geometry":{"type":"Polygon","coordinates":[[[7.821776,43.826705],[8.081554,43.918767],[8.552016,44.346337],[8.765801,44.422534],[9.289128,44.319336],[9.764862,44.092864],[9.383851,43.021302],[7.821776,43.826705]]]}},{"type":"Feature","properties":{"name":"Alboran Sea","rank":7},"geometry":{"type":"Polygon","coordinates":[[[-5.584675,35.844316],[-5.617507,36.02731],[-5.360856,36.13472],[-5.17141,36.423643],[-4.673999,36.506196],[-4.434814,36.700396],[-3.827849,36.755974],[-2.787499,36.714684],[-2.305461,36.820001],[-2.187432,36.74538],[-2.072607,36.777135],[-1.249763,35.451583],[-1.91334,35.094396],[-2.839899,35.127727],[-2.97219,35.407116],[-3.206078,35.239374],[-3.693438,35.280121],[-4.33004,35.161601],[-4.836986,35.28118],[-5.105264,35.467965],[-5.337576,35.74526],[-5.27776,35.902951],[-5.584675,35.844316]]]}},{"type":"Feature","properties":{"name":"Bosporus","rank":5},"geometry":{"type":"Polygon","coordinates":[[[29.132878,41.208906],[29.04663,41.006774],[28.959297,41.008893],[29.053503,41.215262],[29.132878,41.208906]]]}},{"type":"Feature","properties":{"name":"Boknafjorden","rank":5},"geometry":{"type":"Polygon","coordinates":[[[5.349472,59.166156],[5.563774,59.291058],[6.415247,59.547167],[5.951658,59.298991],[5.889233,59.060323],[6.099297,58.951854],[6.363364,59.001076],[6.137435,58.874598],[5.562224,58.979914],[5.349472,59.166156]]]}},{"type":"Feature","properties":{"name":"Kangertittivaq","rank":5},"geometry":{"type":"Polygon","coordinates":[[[-21.624799,70.468128],[-22.269307,70.122025],[-23.667361,70.139518],[-25.530038,70.353277],[-27.0,70.20547738873535],[-27.0,70.29033898504065],[-26.508454,70.396685],[-26.677281,70.473942],[-27.0,70.4550258204775],[-27.0,70.53616206895352],[-26.604779,70.553317],[-26.217955,70.453839],[-25.346406,70.693541],[-25.467613,70.779789],[-25.393509,70.834824],[-25.432137,70.921614],[-25.726874,71.042253],[-27.0,70.86329899140242],[-27.0,70.94601450880654],[-26.157623,71.050211],[-25.667627,71.265573],[-25.842784,71.480392],[-27.0,71.52361764420412],[-27.0,71.62911982807093],[-25.885107,71.571962],[-24.56219,71.223767],[-24.265878,71.046491],[-23.971632,70.649616],[-23.32764,70.451178],[-22.690522,70.437406],[-22.437049,70.860223],[-22.384132,70.462289],[-21.624799,70.468128]]]}},{"type":"Feature","properties":{"name":"Garabogaz Bay","rank":6},"geometry":{"type":"Polygon","coordinates":[[[52.920005,41.081911],[52.830037,41.341715],[52.88347,41.652342],[52.814689,41.711614],[52.905174,41.895763],[53.163918,42.093684],[53.752358,42.129651],[53.846564,42.091023],[54.094714,41.519533],[54.671526,41.122116],[54.723358,40.951196],[54.657212,40.858592],[54.31961,40.834795],[54.377281,40.693485],[53.869818,40.648527],[53.615312,40.818387],[53.145418,40.824744],[52.920005,41.081911]]]}},{"type":"Feature","properties":{"name":"Dardanelles","rank":7},"geometry":{"type":"Polygon","coordinates":[[[26.184893,39.991823],[26.679643,40.426267],[26.736281,40.399291],[26.313464,40.025154],[26.184893,39.991823]]]}},{"type":"Feature","properties":{"name":"Sea of Marmara","rank":6},"geometry":{"type":"Polygon","coordinates":[[[28.959297,41.008893],[29.364647,40.809396],[29.845135,40.737953],[29.05402,40.649044],[28.787887,40.534219],[29.055105,40.424148],[29.006943,40.389757],[27.962356,40.369629],[27.989331,40.489234],[27.875074,40.513057],[27.731672,40.481302],[27.848616,40.381825],[27.727951,40.328908],[27.475512,40.319916],[27.284516,40.45536],[26.679643,40.426267],[27.258057,40.687129],[27.499335,40.9729],[27.925304,40.990367],[28.171904,41.080852],[28.780445,40.973959],[28.959297,41.008893]]]}},{"type":"Feature","properties":{"name":"Denmark Strait","rank":6},"geometry":{"type":"Polygon","coordinates":[[[-27.0,66.23434482988914],[-27.0,67.71946903615964],[-23.55096,66.217302],[-23.593283,66.093485],[-23.434533,66.024187],[-23.737228,66.069688],[-23.777432,66.017831],[-23.525044,65.880243],[-23.832467,65.849004],[-23.285317,65.75007],[-23.616047,65.679686],[-24.092813,65.776528],[-24.009743,65.616202],[-23.856807,65.538403],[-24.248928,65.615143],[-24.454781,65.500292],[-23.899673,65.407687],[-22.902731,65.580726],[-22.005783,65.493419],[-21.850211,65.421459],[-22.509034,65.196563],[-22.099447,65.12618],[-21.763963,65.1738],[-21.892017,65.048924],[-22.787906,65.046288],[-24.021371,64.871648],[-27.0,66.23434482988914]]]}},{"type":"Feature","properties":{"name":"Stettiner Haff","rank":8},"geometry":{"type":"Polygon","coordinates":[[[13.827249,54.059698],[13.921456,53.996756],[13.925693,53.87927],[14.558574,53.823175],[14.583431,53.639569],[13.950549,53.801497],[13.865387,53.853354],[13.827249,54.059698]]]}},{"type":"Feature","properties":{"name":"Kaliningrad","rank":8},"geometry":{"type":"Polygon","coordinates":[[[21.158326,55.640868],[21.237701,55.455143],[21.189022,54.934942],[20.594795,54.982587],[21.031874,55.350369],[21.158326,55.640868]]]}},{"type":"Feature","properties":{"name":"Matochkin Shar Strait","rank":8},"geometry":{"type":"Polygon","coordinates":[[[54.214862,73.41663],[54.300024,73.351027],[55.00701,73.453656],[56.489193,73.29917],[56.40031,73.21026],[54.803818,73.38751],[54.14608,73.278525],[54.214862,73.41663]]]}},{"type":"Feature","properties":{"name":"\u00d8resund","rank":7},"geometry":{"type":"Polygon","coordinates":[[[12.885343,55.403802],[12.409093,55.301664],[12.214893,55.46677],[12.571047,55.684793],[12.525003,55.91868],[12.64298,56.084353],[12.97371,55.748277],[12.885343,55.403802]]]}},{"type":"Feature","properties":{"rank":7},"geometry":{"type":"Polygon","coordinates":[[[11.464919,55.919688],[11.322183,55.752515],[10.978741,55.721302],[11.12111,55.600663],[11.170822,55.328664],[11.286216,55.204305],[11.653997,55.186838],[11.859307,54.776192],[11.760347,54.745522],[11.258672,54.951892],[11.058685,54.940781],[11.035378,54.773039],[11.352791,54.664873],[11.193515,54.509789],[11.283012,54.417971],[10.731624,54.316375],[10.360691,54.438073],[10.212535,54.408979],[10.143753,54.488354],[9.868576,54.472463],[10.028928,54.581475],[10.022004,54.674079],[9.745793,54.80743],[9.688122,55.000054],[9.453718,55.039742],[9.671172,55.266213],[9.591281,55.493228],[10.023606,55.761506],[9.90351,55.843],[10.182872,55.865247],[10.318885,56.2129],[10.426837,56.27641],[10.621037,56.202306],[10.898872,56.370215],[11.464919,55.919688]],[[10.951249,55.156143],[10.621554,54.851355],[10.689818,54.744979],[10.951249,55.156143]],[[10.505178,55.558315],[10.28607,55.610714],[9.860618,55.515449],[9.859068,55.357242],[9.988672,55.163041],[10.623672,55.052428],[10.785109,55.133379],[10.818958,55.321791],[10.64486,55.609629],[10.505178,55.558315]],[[10.061174,54.886288],[9.830491,55.058268],[9.771218,55.059844],[9.806151,54.905848],[10.061174,54.886288]]]}},{"type":"Feature","properties":{"name":"Mecklenburger Bucht","rank":7},"geometry":{"type":"Polygon","coordinates":[[[12.463696,54.3991],[12.111178,54.168193],[11.796314,54.145455],[11.399439,53.944356],[10.917918,53.995154],[10.810483,54.075046],[11.008403,54.181422],[11.110327,54.428789],[11.283012,54.417971],[11.193515,54.509789],[11.352791,54.664873],[11.680455,54.653434],[12.056399,54.846134],[12.463696,54.3991]]]}},{"type":"Feature","properties":{"name":"Mediterranean Sea","rank":1},"geometry":{"type":"Polygon","coordinates":[[[11.053879,37.072414],[10.571324,36.879274],[10.412574,36.731608],[10.293512,36.781373],[10.334233,36.865502],[10.188712,37.033786],[10.19667,37.205765],[9.875449,37.253902],[9.830491,37.135382],[9.783879,37.211579],[9.838397,37.308937],[9.688122,37.34015],[9.142006,37.194629],[8.823472,36.997794],[7.91066,36.85651],[7.432291,37.059185],[7.204191,37.092517],[7.238608,36.9687],[6.927464,36.919478],[6.486664,37.085644],[6.064932,36.864443],[5.295522,36.648022],[4.75788,36.896198],[3.778922,36.896198],[3.520695,36.795119],[2.972977,36.784525],[2.593568,36.600919],[0.971703,36.443771],[0.312338,36.162237],[-0.048028,35.832568],[-0.426377,35.861687],[-1.249763,35.451583],[-2.091133,36.796178],[-1.640799,37.386736],[-1.327536,37.561351],[-0.721656,37.631192],[-0.814777,37.76984],[-0.520557,38.317015],[0.20175,38.759392],[0.228209,38.740349],[1.562778,38.660431],[1.40563,38.671025],[1.436274,38.768383],[1.579677,38.659372],[4.28163,39.816149],[4.314962,39.917202],[4.128151,40.057452],[3.263295,41.9624],[5.405696,43.229997],[6.11573,43.0721],[6.570276,43.199095],[6.716831,43.373735],[7.261345,43.695989],[7.821776,43.826705],[9.383851,43.021302],[9.313468,42.713336],[9.137768,42.732896],[8.814997,42.60802],[8.565762,42.357725],[8.675316,42.284164],[8.566279,42.21856],[8.587983,42.160889],[8.701206,42.095777],[8.621831,41.930671],[8.740376,41.9254],[8.718156,41.761353],[8.886982,41.700504],[8.807607,41.588315],[9.187016,41.386699],[9.202364,41.248594],[8.572118,40.850143],[8.224439,40.91311],[8.181031,40.771284],[8.190074,40.651705],[8.471039,40.292916],[8.407529,39.917202],[8.547778,39.839429],[8.399054,39.481699],[8.418122,39.205463],[8.595372,38.964185],[8.90233,38.925557],[12.474722,37.744441],[12.640345,37.594166],[13.170029,37.479341],[13.800791,37.135899],[14.143199,37.103627],[14.501937,36.798839],[14.77608,36.710473],[15.112597,36.687709],[15.111564,36.63425],[22.489201,36.446923],[22.608264,36.779771],[22.779726,36.786127],[23.086116,36.467568],[23.009376,36.318869],[23.097226,36.246393],[23.026843,36.15061],[23.22156,35.789185],[23.577714,35.540983],[23.59301,35.257357],[24.463499,35.160541],[24.709066,35.089099],[24.799551,34.934586],[26.165308,35.018716],[26.244166,35.044631],[26.319303,35.312935],[27.106697,35.447346],[27.07073,35.597621],[27.158012,35.788643],[27.223124,35.820398],[27.170208,35.611909],[28.087774,36.065396],[28.231693,36.433694],[28.135937,36.415194],[28.084622,36.642725],[28.303678,36.812069],[28.81698,36.675539],[29.038156,36.693523],[29.223881,36.324708],[29.68902,36.156424],[30.231416,36.307242],[30.446287,36.269673],[30.644156,36.865502],[31.240553,36.821577],[32.022108,36.535315],[32.377745,36.183399],[32.794722,36.035785],[33.694822,36.181823],[34.703443,36.816823],[35.39291,36.575003],[36.049097,36.910486],[36.179787,36.807289],[36.188262,36.659132],[35.810972,36.309877],[35.95701,35.998191],[35.764412,35.571705],[35.902491,35.420887],[35.887712,34.948875],[35.977629,34.54722],[35.647985,34.248246],[35.612018,34.032342],[35.108741,33.083562],[34.678535,31.895573],[34.176343,31.303955],[33.666245,31.1304],[33.194233,31.084356],[33.129689,31.167969],[32.603158,31.068492],[32.216359,31.293904],[32.281937,31.200783],[32.101483,31.092831],[32.008362,31.220369],[31.771322,31.292328],[31.892503,31.482291],[32.135899,31.341007],[31.888783,31.541563],[31.524205,31.458494],[31.082837,31.603472],[31.001912,31.462705],[30.56323,31.417204],[30.92357,31.566962],[30.39492,31.457434],[30.222424,31.258454],[29.929781,31.227242],[29.56956236171841,31.0],[28.65144550302985,31.0],[27.540107,31.21241],[27.247981,31.378059],[25.893335,31.620938],[25.22552,31.533631],[24.95086,31.953786],[24.129618,32.009338],[23.797804,32.15858],[23.286104,32.21359],[23.106218,32.331619],[23.09087,32.61894],[22.187566,32.918456],[21.636178,32.937499],[21.424512,32.799394],[21.06257,32.775571],[20.370416,32.430553],[19.988372,32.027348],[15.359197,32.149046],[15.176624,32.391408],[14.513616,32.510987],[14.236837,32.68139],[13.835208,32.791978],[13.283303,32.914735],[12.753568,32.80097],[12.280005,32.858666],[11.813264,33.093588],[11.202603,33.249185],[11.257639,33.308975],[10.958122,33.626475],[10.898333,33.533871],[10.722633,33.514285],[10.746972,33.723317],[10.882985,33.689985],[11.037497,33.785225],[10.926393,33.889999],[11.187772,34.770539],[11.004166,35.633588],[10.590858,35.887086],[10.476601,36.17495],[10.525797,36.323106],[10.798339,36.492967],[11.126949,36.873977],[11.053879,37.072414]],[[32.413712,34.777955],[33.007991,34.569441],[33.062458,34.674757],[33.414891,34.750954],[33.699576,34.970036],[34.049891,34.988562],[33.908091,35.202348],[33.941939,35.292291],[34.55632,35.66219],[33.607489,35.354199],[32.941845,35.390192],[32.879885,35.180644],[32.301005,35.082743],[32.413712,34.777955]]]}}]}