{"type":"FeatureCollection","features":[{"type":"Feature","properties":{"name":"Jebel Tidirhine","elev":2456,"region":"Africa"},"geometry":{"type":"Point","coordinates":[-4.511811,34.830205]}},{"type":"Feature","properties":{"name":"Lalla Khedidja","elev":2308,"region":"Africa"},"geometry":{"type":"Point","coordinates":[4.229088,36.457097]}},{"type":"Feature","properties":{"name":"Djebel Chelia","elev":2326,"region":"Africa"},"geometry":{"type":"Point","coordinates":[6.666478,35.333363]}},{"type":"Feature","properties":{"name":"Jebel Toubkal","elev":4165,"region":"Africa"},"geometry":{"type":"Point","coordinates":[-7.916134,31.062075]}},{"type":"Feature","properties":{"name":"Jebel Chambi","elev":1544,"region":"Africa"},"geometry":{"type":"Point","coordinates":[8.679917,35.200071]}},{"type":"Feature","properties":{"name":"Adrar Bou Nasser","elev":3340,"region":"Africa"},"geometry":{"type":"Point","coordinates":[-3.880005,33.590103]}},{"type":"Feature","properties":{"elev":-56,"region":"Asia"},"geometry":{"type":"Point","coordinates":[55.366118,45.671264]}},{"type":"Feature","properties":{"elev":-132,"region":"Asia"},"geometry":{"type":"Point","coordinates":[51.813759,43.497632]}},{"type":"Feature","properties":{"name":"Kuh-e Ruzeh","elev":2941,"region":"Asia"},"geometry":{"type":"Point","coordinates":[58.100709,37.804076]}},{"type":"Feature","properties":{"name":"Sabalon Kuh","elev":4814,"region":"Asia"},"geometry":{"type":"Point","coordinates":[47.822021,38.255088]}},{"type":"Feature","properties":{"name":"Kizlar Sivrisi","elev":3070,"region":"Asia"},"geometry":{"type":"Point","coordinates":[30.150141,36.614867]}},{"type":"Feature","properties":{"name":"Uluda\u011f Tepe","elev":2543,"region":"Asia"},"geometry":{"type":"Point","coordinates":[29.218388,40.09246]}},{"type":"Feature","properties":{"name":"Qurnat as Sawd\u0101","elev":3088,"region":"Asia"},"geometry":{"type":"Point","coordinates":[36.103375,34.314526]}},{"type":"Feature","properties":{"name":"Demirkazik","elev":3756,"region":"Asia"},"geometry":{"type":"Point","coordinates":[35.156031,37.835702]}},{"type":"Feature","properties":{"name":"Kackar Dagi","elev":3931,"region":"Asia"},"geometry":{"type":"Point","coordinates":[41.127925,40.841482]}},{"type":"Feature","properties":{"name":"Kuh-e Haji Ebrahim","elev":3587,"region":"Asia"},"geometry":{"type":"Point","coordinates":[45.006244,36.545272]}},{"type":"Feature","properties":{"name":"Gora Konzhakovskiy Kamen","elev":1569,"region":"Europe"},"geometry":{"type":"Point","coordinates":[59.134491,59.632775]}},{"type":"Feature","properties":{"name":"Mount Damavand","elev":5610,"region":"Asia"},"geometry":{"type":"Point","coordinates":[52.109022,35.955192]}},{"type":"Feature","properties":{"name":"Kuh-e Nay Band","elev":2960,"region":"Asia"},"geometry":{"type":"Point","coordinates":[57.374791,32.450091]}},{"type":"Feature","properties":{"elev":-416,"region":"Asia"},"geometry":{"type":"Point","coordinates":[35.47472,31.51539]}},{"type":"Feature","properties":{"name":"Zard Kuh","elev":4548,"region":"Asia"},"geometry":{"type":"Point","coordinates":[50.090009,32.369995]}},{"type":"Feature","properties":{"elev":1020,"region":"Asia"},"geometry":{"type":"Point","coordinates":[35.109984,31.580097]}},{"type":"Feature","properties":{"name":"Mount Ararat","elev":5137,"region":"Asia"},"geometry":{"type":"Point","coordinates":[44.299957,39.700097]}},{"type":"Feature","properties":{"name":"Kuh-e Siah Khvani","elev":3314,"region":"Asia"},"geometry":{"type":"Point","coordinates":[59.049911,36.27998]}},{"type":"Feature","properties":{"name":"Kuh-e Garin","elev":3630,"region":"Asia"},"geometry":{"type":"Point","coordinates":[48.48,33.96009]}},{"type":"Feature","properties":{"name":"Jabal ash Shaykh","elev":2814,"region":"Asia"},"geometry":{"type":"Point","coordinates":[35.859975,33.409997]}},{"type":"Feature","properties":{"name":"Har Meron","elev":1208,"region":"Asia"},"geometry":{"type":"Point","coordinates":[35.410094,33.000023]}},{"type":"Feature","properties":{"name":"Gora Shkhara","elev":5200,"region":"Europe"},"geometry":{"type":"Point","coordinates":[43.100004,43.000008]}},{"type":"Feature","properties":{"name":"Gora Arlan","elev":1880,"region":"Asia"},"geometry":{"type":"Point","coordinates":[54.539949,39.670005]}},{"type":"Feature","properties":{"name":"Erciyes Dagi","elev":3917,"region":"Asia"},"geometry":{"type":"Point","coordinates":[35.450001,38.529953]}},{"type":"Feature","properties":{"name":"Dombai-Ulgen","elev":4038,"region":"Europe"},"geometry":{"type":"Point","coordinates":[41.740019,43.229997]}},{"type":"Feature","properties":{"name":"Cheekha Dar","elev":3611,"region":"Asia"},"geometry":{"type":"Point","coordinates":[44.919887,36.779988]}},{"type":"Feature","properties":{"name":"Bazar Dyuzi","elev":4466,"region":"Europe"},"geometry":{"type":"Point","coordinates":[47.85999,41.210095]}},{"type":"Feature","properties":{"name":"Aragats Lerr","elev":4090,"region":"Asia"},"geometry":{"type":"Point","coordinates":[44.199947,40.529982]}},{"type":"Feature","properties":{"name":"Kizilkaya","elev":3767,"region":"Asia"},"geometry":{"type":"Point","coordinates":[32.069953,37.969964]}},{"type":"Feature","properties":{"name":"Roman-Kosh","elev":1545,"region":"Europe"},"geometry":{"type":"Point","coordinates":[34.247947,44.628677]}},{"type":"Feature","properties":{"name":"Korab","elev":2764,"region":"Europe"},"geometry":{"type":"Point","coordinates":[20.540985,41.787008]}},{"type":"Feature","properties":{"name":"Troglav","elev":1913,"region":"Europe"},"geometry":{"type":"Point","coordinates":[16.607572,43.960519]}},{"type":"Feature","properties":{"name":"Gerlach","elev":2655,"region":"Europe"},"geometry":{"type":"Point","coordinates":[20.13206,49.170952]}},{"type":"Feature","properties":{"name":"Brocken","elev":1141,"region":"Europe"},"geometry":{"type":"Point","coordinates":[10.618551,51.824477]}},{"type":"Feature","properties":{"name":"Hohe Acht","elev":747,"region":"Europe"},"geometry":{"type":"Point","coordinates":[7.016996,50.392878]}},{"type":"Feature","properties":{"name":"Feldberg","elev":1493,"region":"Europe"},"geometry":{"type":"Point","coordinates":[8.01281,47.87725]}},{"type":"Feature","properties":{"name":"Corno Grande","elev":2912,"region":"Europe"},"geometry":{"type":"Point","coordinates":[13.561158,42.487317]}},{"type":"Feature","properties":{"name":"Puy de Sancy","elev":1885,"region":"Europe"},"geometry":{"type":"Point","coordinates":[2.811506,45.530419]}},{"type":"Feature","properties":{"name":"Pico de Aneto","elev":3404,"region":"Europe"},"geometry":{"type":"Point","coordinates":[0.663078,42.632202]}},{"type":"Feature","properties":{"name":"Torre de Cerredo","elev":2648,"region":"Europe"},"geometry":{"type":"Point","coordinates":[-4.845041,43.194695]}},{"type":"Feature","properties":{"name":"Mulhac\u00e9n","elev":3479,"region":"Europe"},"geometry":{"type":"Point","coordinates":[-3.311373,37.051379]}},{"type":"Feature","properties":{"name":"Mount San Lorenzo","elev":2271,"region":"Europe"},"geometry":{"type":"Point","coordinates":[-2.937791,42.246301]}},{"type":"Feature","properties":{"name":"Gora Narodnaya","elev":1895,"region":"Europe"},"geometry":{"type":"Point","coordinates":[60.123438,65.02711]}},{"type":"Feature","properties":{"name":"Gora Yamantau","elev":1638,"region":"Europe"},"geometry":{"type":"Point","coordinates":[58.117188,54.243488]}},{"type":"Feature","properties":{"name":"Matterhorn","elev":4478,"region":"Europe"},"geometry":{"type":"Point","coordinates":[7.729584,45.938172]}},{"type":"Feature","properties":{"name":"Kebnekaise","elev":2111,"region":"Europe"},"geometry":{"type":"Point","coordinates":[18.504522,67.90602]}},{"type":"Feature","properties":{"name":"Oksskolten","elev":1916,"region":"Europe"},"geometry":{"type":"Point","coordinates":[14.337404,66.024499]}},{"type":"Feature","properties":{"name":"Galdhpiggen","elev":2469,"region":"Europe"},"geometry":{"type":"Point","coordinates":[8.312677,61.63648]}},{"type":"Feature","properties":{"name":"Mount Olympus","elev":2917,"region":"Europe"},"geometry":{"type":"Point","coordinates":[22.350123,40.083251]}},{"type":"Feature","properties":{"name":"Musala","elev":2925,"region":"Europe"},"geometry":{"type":"Point","coordinates":[23.586833,42.179816]}},{"type":"Feature","properties":{"name":"Moldoveanu","elev":2543,"region":"Europe"},"geometry":{"type":"Point","coordinates":[24.747687,45.608455]}},{"type":"Feature","properties":{"name":"Grossglockner","elev":3798,"region":"Europe"},"geometry":{"type":"Point","coordinates":[12.695325,47.07471]}},{"type":"Feature","properties":{"name":"Vesuvio","elev":1281,"region":"Europe"},"geometry":{"type":"Point","coordinates":[14.433374,40.816722]}},{"type":"Feature","properties":{"name":"Mont Blanc","elev":4807,"region":"Europe"},"geometry":{"type":"Point","coordinates":[6.865043,45.833679]}},{"type":"Feature","properties":{"elev":-28,"region":"Europe"},"geometry":{"type":"Point","coordinates":[49.009534,44.257559]}},{"type":"Feature","properties":{"name":"Gora Elbrus","elev":5642,"region":"Europe"},"geometry":{"type":"Point","coordinates":[42.439198,43.355171]}},{"type":"Feature","properties":{"name":"Zugspitze","elev":2963,"region":"Europe"},"geometry":{"type":"Point","coordinates":[10.979975,47.419977]}},{"type":"Feature","properties":{"name":"Vaalserberg","elev":321,"region":"Europe"},"geometry":{"type":"Point","coordinates":[6.020051,50.760078]}},{"type":"Feature","properties":{"name":"Ukko Koli","elev":347,"region":"Europe"},"geometry":{"type":"Point","coordinates":[29.809801,63.090092]}},{"type":"Feature","properties":{"name":"Triglav","elev":2864,"region":"Europe"},"geometry":{"type":"Point","coordinates":[13.830005,46.380056]}},{"type":"Feature","properties":{"name":"Suur Munamagi","elev":318,"region":"Europe"},"geometry":{"type":"Point","coordinates":[27.049926,57.719991]}},{"type":"Feature","properties":{"name":"Sn\u011b\u017eka","elev":1603,"region":"Europe"},"geometry":{"type":"Point","coordinates":[15.70999,50.740003]}},{"type":"Feature","properties":{"name":"Signal de Botrange","elev":694,"region":"Europe"},"geometry":{"type":"Point","coordinates":[6.090009,50.499997]}},{"type":"Feature","properties":{"elev":114,"region":"Europe"},"geometry":{"type":"Point","coordinates":[-2.36003,49.44]}},{"type":"Feature","properties":{"name":"Rock of Gibraltar","elev":426,"region":"Europe"},"geometry":{"type":"Point","coordinates":[-5.339999,36.130087]}},{"type":"Feature","properties":{"name":"Pico de Almanzor","elev":2592,"region":"Europe"},"geometry":{"type":"Point","coordinates":[-5.300012,40.260086]}},{"type":"Feature","properties":{"name":"Pic de Coma Pedrosa","elev":2943,"region":"Europe"},"geometry":{"type":"Point","coordinates":[1.439808,42.590114]}},{"type":"Feature","properties":{"name":"Monte Viglio","elev":2156,"region":"Europe"},"geometry":{"type":"Point","coordinates":[13.370026,41.880071]}},{"type":"Feature","properties":{"name":"Monte Titano","elev":739,"region":"Europe"},"geometry":{"type":"Point","coordinates":[12.449986,43.90999]}},{"type":"Feature","properties":{"name":"Monte Rosa","elev":4634,"region":"Europe"},"geometry":{"type":"Point","coordinates":[7.869985,45.94003]}},{"type":"Feature","properties":{"name":"Mont Agel","elev":140,"region":"Europe"},"geometry":{"type":"Point","coordinates":[7.40419,43.745919]}},{"type":"Feature","properties":{"name":"Moncayo","elev":2313,"region":"Europe"},"geometry":{"type":"Point","coordinates":[-1.839988,41.77998]}},{"type":"Feature","properties":{"name":"M\u00f8lleh\u00f8j","elev":171,"region":"Europe"},"geometry":{"type":"Point","coordinates":[9.829946,55.980003]}},{"type":"Feature","properties":{"name":"Midzor","elev":2168,"region":"Europe"},"geometry":{"type":"Point","coordinates":[22.679961,43.390069]}},{"type":"Feature","properties":{"name":"Maja e Jezerc\u00eb","elev":2694,"region":"Europe"},"geometry":{"type":"Point","coordinates":[19.809816,42.440019]}},{"type":"Feature","properties":{"name":"Maglic","elev":2387,"region":"Europe"},"geometry":{"type":"Point","coordinates":[18.740005,43.279962]}},{"type":"Feature","properties":{"elev":300,"region":"Europe"},"geometry":{"type":"Point","coordinates":[25.63,54.539962]}},{"type":"Feature","properties":{"name":"Lenina","elev":150,"region":"Europe"},"geometry":{"type":"Point","coordinates":[37.509971,55.689991]}},{"type":"Feature","properties":{"elev":311,"region":"Europe"},"geometry":{"type":"Point","coordinates":[25.959999,56.869991]}},{"type":"Feature","properties":{"name":"K\u00e9kes","elev":1015,"region":"Europe"},"geometry":{"type":"Point","coordinates":[20.009997,47.880078]}},{"type":"Feature","properties":{"elev":136,"region":"Europe"},"geometry":{"type":"Point","coordinates":[-2.090012,49.239981]}},{"type":"Feature","properties":{"name":"Haltiatunturi","elev":1328,"region":"Europe"},"geometry":{"type":"Point","coordinates":[21.260035,69.300014]}},{"type":"Feature","properties":{"name":"Grauspitze","elev":2599,"region":"Europe"},"geometry":{"type":"Point","coordinates":[9.580003,47.04999]}},{"type":"Feature","properties":{"name":"Gora Tebulosmta","elev":4494,"region":"Europe"},"geometry":{"type":"Point","coordinates":[45.299891,42.590114]}},{"type":"Feature","properties":{"name":"Gora Goverla","elev":2058,"region":"Europe"},"geometry":{"type":"Point","coordinates":[24.510023,48.159991]}},{"type":"Feature","properties":{"name":"Finsteraarhorn","elev":4274,"region":"Europe"},"geometry":{"type":"Point","coordinates":[8.130026,46.540006]}},{"type":"Feature","properties":{"name":"El Teleno","elev":2183,"region":"Europe"},"geometry":{"type":"Point","coordinates":[-6.390019,42.349986]}},{"type":"Feature","properties":{"name":"Dzyarzhynskaya","elev":346,"region":"Europe"},"geometry":{"type":"Point","coordinates":[27.079977,53.86001]}},{"type":"Feature","properties":{"name":"Durmitor","elev":2522,"region":"Europe"},"geometry":{"type":"Point","coordinates":[19.030016,43.130069]}},{"type":"Feature","properties":{"name":"Dinara","elev":1831,"region":"Europe"},"geometry":{"type":"Point","coordinates":[16.380006,44.060004]}},{"type":"Feature","properties":{"name":"Daravica","elev":2656,"region":"Europe"},"geometry":{"type":"Point","coordinates":[20.139977,42.529971]}},{"type":"Feature","properties":{"name":"Cr\u00eat de la Neige","elev":1718,"region":"Europe"},"geometry":{"type":"Point","coordinates":[5.939833,46.269948]}},{"type":"Feature","properties":{"name":"Buurgplaatz","elev":559,"region":"Europe"},"geometry":{"type":"Point","coordinates":[6.020051,50.15998]}},{"type":"Feature","properties":{"name":"Botev","elev":2376,"region":"Europe"},"geometry":{"type":"Point","coordinates":[24.919916,42.719973]}},{"type":"Feature","properties":{"name":"B\u0103l\u0103ne\u0219ti","elev":429,"region":"Europe"},"geometry":{"type":"Point","coordinates":[28.090009,47.219958]}},{"type":"Feature","properties":{"name":"Beerenberg","elev":2277,"region":"Europe"},"geometry":{"type":"Point","coordinates":[-8.170035,71.080071]}},{"type":"Feature","properties":{"name":"Ben Nevis","elev":1343,"region":"Europe"},"geometry":{"type":"Point","coordinates":[-5.004992,56.797003]}},{"type":"Feature","properties":{"name":"Snowdon","elev":1085,"region":"Europe"},"geometry":{"type":"Point","coordinates":[-4.094808,53.072536]}},{"type":"Feature","properties":{"name":"Carrauntoohil","elev":1038,"region":"Europe"},"geometry":{"type":"Point","coordinates":[-9.742722,51.998968]}},{"type":"Feature","properties":{"name":"Snaefell","elev":621,"region":"Europe"},"geometry":{"type":"Point","coordinates":[-4.460029,54.260089]}},{"type":"Feature","properties":{"name":"Hvannadalshnkur","elev":2110,"region":"Europe"},"geometry":{"type":"Point","coordinates":[-16.650934,64.03889]}},{"type":"Feature","properties":{"name":"Olympus","elev":1951,"region":"Europe"},"geometry":{"type":"Point","coordinates":[32.874634,34.96576]}},{"type":"Feature","properties":{"name":"Selvili Tepe","elev":1023,"region":"Europe"},"geometry":{"type":"Point","coordinates":[33.169977,35.320074]}},{"type":"Feature","properties":{"name":"Punta la Marmora","elev":1834,"region":"Europe"},"geometry":{"type":"Point","coordinates":[9.317377,40.031146]}},{"type":"Feature","properties":{"name":"Puig Mayor","elev":1445,"region":"Europe"},"geometry":{"type":"Point","coordinates":[2.795995,39.808467]}},{"type":"Feature","properties":{"name":"Monte Cinto","elev":2706,"region":"Europe"},"geometry":{"type":"Point","coordinates":[8.951429,42.385975]}},{"type":"Feature","properties":{"name":"Monte Etna","elev":3322,"region":"Europe"},"geometry":{"type":"Point","coordinates":[14.99514,37.755121]}},{"type":"Feature","properties":{"name":"Psiloritis","elev":2456,"region":"Europe"},"geometry":{"type":"Point","coordinates":[24.769983,35.230001]}},{"type":"Feature","properties":{"name":"Dingli Cliffs","elev":253,"region":"Europe"},"geometry":{"type":"Point","coordinates":[14.400011,35.859989]}},{"type":"Feature","properties":{"name":"Slaettaratindur","elev":882,"region":"Europe"},"geometry":{"type":"Point","coordinates":[-6.994438,62.300315]}}]}